resource-type,city,state,name,website,phone,email
Crisis Center,Anniston,Alabama,2nd Chance,http://2ndchanceinc.org/,1-800-650-6522,2ndChance@cableone.net
Crisis Center,Birmingham,Alabama,Rape Response,http://www.crisiscenterbham.com/,1-205-323-7782,"""NA"""
Crisis Center,Cullman,Alabama,Victim's Services of Cullman,http://www.vsoccullman.org,1-256-775-2600,sapcoordinator@vsoccullman.org
Crisis Center,Decatur,Alabama,Mental Health Association,http://www.mhainmc.net,1-256-353-1160,suebrantley@mhainmc.net
Crisis Center,Dothan,Alabama,House of Ruth,http://www.houseofruthdothan.org,1-334-793-5214,webmaster@houseofruthdothan.org
Crisis Center,Florence,Alabama,Rape Response,http://shoalscrisiscenter.org/,1-256-765-0025,info@shoalscrisiscenter.org 
Crisis Center,Huntsville,Alabama,Crisis Services of Northern Alabama,http://www.csna.org,1-800-691-8426,"""NA"""
Crisis Center,Mobile,Alabama,Rape Crisis Center of Mobile,http://www.lifelinesmobile.org,1-251-431-5100,"""NA"""
Crisis Center,Montgomery,Alabama,Stand Together Against Rape,http://www.lighthousehelp.com,1-888-908-7273,info@lighthousehelp.com
Crisis Center,Opelika,Alabama,Rape Counselors of East Alabama,"""NA""",1-334-741-0707,"""NA"""
Crisis Center,Pelham,Alabama,Safehouse of Shelby County,http://www.safehouse.org,1-205-669-1877,safehouse@safehouse.org
Crisis Center,Phenix City,Alabama,Crisis Center of Russell County,http://www.ccpcrc.org,1-334-297-4435,info@cbtbankea.com
Crisis Center,Robertsdale,Alabama,The Lighthouse Rape Crisis Center,http://www.abeacon.org,1-251-947-4393,jsheils@gulftel.com
Crisis Center,Selma,Alabama,"SABRA Sanctuary, INC","""NA""",1-800-650-6522,"""NA"""
Crisis Center,Tuscaloosa,Alabama,Turning Point,http://www.turningpointservices.org,1-205-758-0808,"""NA"" "
Crisis Center,Anchorage,Alaska,Standing Together Against Rape,http://www.staralaska.com,1-800-478-8999,star@staralaska.org
Crisis Center,Barrow,Alaska,Artic Women in Crisis,"""NA""",1-800-478-0267,"""NA"""
Crisis Center,Bethel,Alaska,Tundra Women's Coalition,http://tundrapeace.org/,1-800-478-7799,"""NA"""
Crisis Center,Cordova,Alaska,Cordova Family Resource Center,http://cordovaalaska.org,1-866-790-4357,"""NA"""
Crisis Center,Dillingham,Alaska,Safe and Fear-Free Environment,www.besafeandfree.org,1-800-478-2316,keriea@rainn.org
Crisis Center,Emmonak,Alaska,Emmonak Women's Shelter,"""NA""",1-907-949-1443,"""NA"""
Crisis Center,Fairbanks,Alaska,The Interior Alaska Center for Non-Violent Living,http://www.iacnvl.org/,1-800-478-7273,"""NA"""
Crisis Center,Homer,Alaska,South Peninsula Haven House,http://www.havenhousealaska.org,1-907-235-7712,admin@havenhousealaska.org
Crisis Center,Juneau,Alaska,Aiding Women in Abuse and Rape Emergencies, http://www.awareak.org,1-800-478-1090,"""NA"""
Crisis Center,Kenai,Alaska,Leeshore Center,http://leeshoreak.org,1-907-283-7257,"""NA"""
Crisis Center,Ketchikan,Alaska,Women in Safe Homes,http://wishak.org/,1-800-478-9474,info@wishak.org
Crisis Center,Kodiak,Alaska,Kodiak Women's Resource and Crisis Center,http://www.kwrcc.org,1-907-486-6171,kwrcc@gci.net
Crisis Center,Nome,Alaska,Bering Sea Women's Group,http://www.beringseawomensgroup.org/,1-800-570-5444,"""NA"""
Crisis Center,Palmer,Alaska,Alaska Family Services,http://akafs.org/,1-866-746-4080,teresah@akafs.org
Crisis Center,Seward,Alaska,Seaview Community Services,http://www.seaviewseward.org/dv.shtml,1-907-224-3027,BehavioralHealth@SeaviewSeward.org
Crisis Center,Sitka,Alaska,Sitkans Against Family Violence, http://www.safv.org,1-907-747-6511,info@safv.org
Crisis Center,Unalaska,Alaska,USAFV,"""NA""",1-907-581-1500,"""NA"""
Crisis Center,Valdez,Alaska,Advocates for Victims of Violence,http://avvalaska.org/,1-800-835-4044,avv@avvalaska.org
Crisis Center,Tempe,Arizona,EMPACT-SPC, http://www.empact-spc.com,1-480-736-4953,info@empact-spc.com
Crisis Center,Tuscon,Arizona,Southern Arizona Center Against Sexual Assault,http://www.sacasa.org/,1-800-400-1001,sacasainfo@arizonaschildren.org
Crisis Center,Batesville,Arkansas,Family Violence Prevention,http://www.batesvillerapecrisis.org,1-800-894-8821,"""NA"""
Crisis Center,Clarksville,Arkansas,Ozark Rape Crisis Center,http://ozarkrapecrisis.com,1-800-818-1189,orcc@centurytel.net
Crisis Center,Conway,Arkansas,Sexual Assault Crisis Response of Central Arkansas,http://www.conwaywomensshelter.com,1-866-358-2265,wsca@conwaycorp.net
Crisis Center,DeQueen,Arkansas,Southwest Arkansas Domestic Violence Center,"""NA""",1-870-584-3441,"""NA"""
Crisis Center,El Dorado,Arkansas,Turning Point,"""NA""",1-800-980-0929,"""NA"""
Crisis Center,Fayetteville,Arkansas,Northwest Arkansas Rape Crisis Center,www.nwarapecrisis.org,1-800-794-4175,"""NA"""
Crisis Center,Fort Smith,Arkansas,Donald Reynolds Crisis Intervention Center,http://fscic.org,1-800-359-0056,"""NA"""
Crisis Center,Harrison,Arkansas,Ozark Rape Crisis Center INC 2,http://ozarkrapecrisis.com,1-800-818-1189,orcc@centurytel.net
Crisis Center,Jonesboro,Arkansas,The Women's Crisis Center of Northeast Arkansas,http://keepneawomensafe.com,1-866-982-9575,"""NA"""
Crisis Center,Monticello,Arkansas,"Options, INC",http://www.safeportinastorm.com,1-870-367-3488,watchman59@yahoo.com
Crisis Center,Auburn,California,Stand Up Placer,http://www.standupplacer.org/,1-800-575-5352,N/A
Crisis Center,Bakersfield,California,Alliance Against Family Violence & Sexual Assault,http://www.kernalliance.org/,1-661-327-1091,N/A
Crisis Center,Bishop,California,Wild Iris Women’s Services,http://wild-iris.org/,1-877-873-7384,N/A
Crisis Center,Burlingame,California,Rape Trauma Services,http://www.rapetraumaservices.org/,1-650-692-7273,info@rapetraumaservices.org
Crisis Center,Chico,California,"Rape Crisis Intervention of Butte, Glenn, Tehama",http://www.rapecrisis.org/,1-877-452-9588,info@rapecrisis.org
Crisis Center,Compton,California,YWCA Greater Los Angeles,http://www.ywcagla.org/,1-877-943-5778,N/A
Crisis Center,Crescent City,California,North Coast Rape Crisis Team,N/A,1-707-465-2851,N/A
Crisis Center,El Centro,California,Rape Crisis Center,http://www.surehelplinecrisiscenter.org/,1-760-352-7878,info@surehelplinecrisiscenter.org
Crisis Center,Eureka,California,North Coast Rape Crisis Team,N/A,1-707-445-2881,N/A
Crisis Center,Fairfield,California,SafeQuest Solano,http://www.safequest.org/,1-707-422-7345,N/A
Crisis Center,Fort Bragg,California,Project Sanctuary,http://projectsanctuary.org/,1-800-575-4357,projsanc@projectsanctuary.org
Crisis Center,Fresno,California,Resource Center for Survivors of Sexual Assault & Family Violence (Serving Fresno County),http://www.rcsfresno.org/,1-559-222-7273,N/A
Crisis Center,Gilroy,California,Commity Solutions,http://www.communitysolutions.org/,1-877-363-7238,N/A
Crisis Center,Gilroy,California,Commity Solutions,http://www.communitysolutions.org/,1-877-363-7239,N/A
Crisis Center,Grass Valley,California,Domestic Violence & Sexual Assault Coalition,http://www.dvsac.org/,1-800-799-7233,info@dvsac.org
Crisis Center,Jackson,California,Operation Care,http://www.operationcare.org/,1-800-675-3392,info@operationcare.org
Crisis Center,Kelseyville,California,Lake Family Resource Center,http://www.lakefrc.org/,1-888-485-7733,N/A
Crisis Center,Kings Beach,California,Tahoe Safe Alliance,http://www.tahoesafealliance.org/,1-800-736-1060,N/A
Crisis Center,Lancaster,California,Sexual Assault Response Services,http://www.avhospital.org/,1-661-723-7273,N/A
Crisis Center,Livermore,California,Tri-Valley Haven for Women,http://trivalleyhaven.org/,1-925-449-5842,N/A
Crisis Center,Lompoc,California,N. County Rape Crisis & Child Protection,http://www.sbcountyrapecrisis.org/,1-805-928-35554,N/A
Crisis Center,Lompoc,California,N. County Rape Crisis & Child Protection Center,http://www.sbcountyrapecrisis.org/,1-805-928-35555,N/A
Crisis Center,Long Beach,California,YWCA Greater Los Angeles,http://www.ywcagla.org/,1-877-943-5778,N/A
Crisis Center,Los Angeles,California,Rape Treatment Center at Santa Monica-UCLA Medical Center,http://www.911rape.org/,1-310-319-4000,N/A
Crisis Center,Los Angeles,California,YWCA Greater Los Angeles,http://www.ywcagla.org/,1-877-943-5778,N/A
Crisis Center,Los Angeles,California,Peace Over Violence,http://peaceoverviolence.org/,1-310-392-8381,info@peaceoverviolence.org
Crisis Center,Los Angeles,California,Peace Over Violence,http://peaceoverviolence.org/,1-213-955-9090,info@peaceoverviolence.org
Crisis Center,Los Angeles,California,East Los Angeles Women’s Center,http://www.elawc.org/,1-800-585-6231,N/A
Crisis Center,Los Angeles,California,"Center for the Pacific-Asian Family, Inc.",http://www.nurturingchange.org/,1-800-339-3940,N/A
Crisis Center,Loyalton,California,"PCIRC’s SAFE Program, Sierra County",http://www.pcirc.com/,1-877-215-7273,N/A
Crisis Center,Madera,California,Victim Service Center,http://www.maderacap.org/,1-559-661-1000,N/A
Crisis Center,Mariposa,California,Mountain Crisis Service,http://www.mountaincrisisservices.com/,1-209-966-2350,N/A
Crisis Center,Merced,California,Valley Crisis Center,http://www.bcc4you.org/,1-209-722-4357,N/A
Crisis Center,Modesto,California,Haven Women’s Center of Stanislaus,http://hwcstan.squarespace.com/,1-888-454-2836,N/A
Crisis Center,Monterey,California,Monterey County Rape Crisis Center,http://www.mtryrapecrisis.org/,1-831-375-4357,info@mtryrapecrisis.org
Crisis Center,Napa,California,Napa Emergency Women Services,http://www.napanews.org/,1-707-255-6397,N/A
Crisis Center,Oakland,California,Highland Sexual Assault Center,N/A,1-510-534-9290,N/A
Crisis Center,Oakland,California,Bay Area Women Against Rape,http://www.bawar.org/,1-510-845-7273,N/A
Crisis Center,Oceanside,California,Women's Resource Center,http://www.wrcsd.org/,1-760-757-3500,N/A
Crisis Center,Oxnard,California,Coalition For Family Harmony,http://www.thecoalition.org/,1-800-300-2181,N/A
Crisis Center,Palm Deset,California,Coachella Valley Sexual Assault Services,http://www.sbsas.org/,1-760-568-9071,N/A
Crisis Center,Pasadena,California,Peace Over Violence -- West San Gabriel Valley Center,http://peaceoverviolence.org/,1-626-793-3385,info@peaceoverviolence.org
Crisis Center,Paso Robles,California,RISE,http://www.sarpcenter.org/,1-805-226-5400,N/A
Crisis Center,Placerville,California,The Center for Violence-Free Relationships,http://www.thecenternow.org/,1-530-626-1131,N/A
Crisis Center,Pomona,California,Project Sister Family Services,http://peaceoverviolence.org/,1-310-392-8381,N/A
Crisis Center,Pomona,California,Project Sister Family Services,http://peaceoverviolence.org/,1-213-955-9090,N/A
Crisis Center,Redding,California,One Safe Place,http://www.ospshasta.org/,1-844-244-0117, lorrainem@ospshasta.org
Crisis Center,Ridgecrest,California,"Women’s Center--High Desert, Inc.",http://www.womenscenterhighdesertinc.org/,1-760-375-0745,N/A
Crisis Center,Riverside,California,Riverside Area Rape Crisis Center,http://www.rarcc.org/,1-866-686-7273,N/A
Crisis Center,Roseville,California,Stand Up Placer,http://www.standupplacer.org/,1-800-575-5352,N/A
Crisis Center,San Andreas,California,Calaveras Crisis Center,http://www.trcac.org/,1-209-736-4011,N/A
Crisis Center,San Bernadino,California,San Bernadino Sexual Assault Service,http://www.sbsas.org/,1-909-855-8884,N/A
Crisis Center,San Diego,California,Center for Community Solutions,http://www.ccssd.org/,1-888-385-4657,N/A
Crisis Center,San Fransico,California,San Francisco Women Against Rape,http://www.sfwar.org/,1-415-647-7273,info@sfwar.org
Crisis Center,San Jacinto,California,Center Against Sexual Assault,http://swcasa.org/,1-866-373-8300,N/A
Crisis Center,San Jose,California,YWCA Rape Crisis Center,http://www.ywca-sv.org/,1-408-287-3000,N/A
Crisis Center,San Pablo,California,Community Violence Solutions (Serving Contra Costa and Marin Counties),http://www.cvsolutions.org/,1-563-328-5064,N/A
Crisis Center,Santa Ana,California,CSP Sexual Assault Victim’s Service,http://www.cspinc.org/sexual.html,1-714-957-2737,N/A
Crisis Center,Santa Barbara,California,Santa Barbara Rape Crisis Center,http://www.sbrapecrisiscenter.org/,1-805-564-3696,sbrcc@sbrcc.net
Crisis Center,Santa Cruz,California,Women's Crisis Support Defensa de Mujeres,http://wcs-ddm.org/,1-888-900-4232,N/A
Crisis Center,Santa Monica,California,Rape Treatment Center at Santa Monica-UCLA Medical Center,http://www.rapetreatmentcenter.org/,1-310-319-4000,N/A
Crisis Center,Santa Rosa,California,Verity formerly United Against Sexual Assault of Sonoma County (UASA),http://www.ourverity.org/,1-707-545-7273,N/A
Crisis Center,Sonora,California,Center for a Nonviolent Community,http://www.nonviolentcommunity.org/,1-209-533-3401,N/A
Crisis Center,South Lake Tahoe,California,Live Violence Free,http://www.liveviolencefree.org/,1-888-750-6444,N/A
Crisis Center,Stockton,California,Women's Center Youth and Family Services,http://www.womenscenteryfs.org/,1-209-465-4997,N/A
Crisis Center,Susanville,California,Lassen Family Services,http://www.lassenfamilyservices.org/,1-530-257-5004,N/A
Crisis Center,Ukiah,California,Project Sanctuary,http://www.projectsanctuary.org/,1-707-463-4357,projsanc@projectsanctuary.org
Crisis Center,Valencia,California,Valley Trauma Center,http://https//www.csun.edu/vtc,1-818-866-0453,N/A
Crisis Center,Vallego,California,SafeQuest Solano,http://www.safequest.org/,1-866-487-7233,N/A
Crisis Center,Van Nuys,California,Valley Trauma Center,http://www.valleytraumacenter.org/,1-661-253-0258,N/A
Crisis Center,Visalia,California,Family Services of Tulare County,http://www.fstc.net/,1-559-732-7371,N/A
Crisis Center,Watsonville,California,Women's Crisis Support Defensa de Mujeres,http://wcs-ddm.org/,1-888-900-4232,N/A
Crisis Center,Weaverville,California,Human Response Network,http://www.humanresponsenetwork.org/,1-800-358-5251,N/A
Crisis Center,Woodland,California,Empower Yolo,http://www.empoweryolo.org/,1-530-662-1133,N/A
Crisis Center,Yreka,California,Siskiyou Domestic Violence & Crisis Center,http://www.sdvcc.org/,1-877-842-4068,Employer.sdvcc@snowcrest.net
Crisis Center,Yuba City,California,Casa De Esperanza,http://www.casadeesperanzasite.org/,1-530-674-2040,N/A
Crisis Center,Yucca Valley,California,Morongo Basin Sexual Assault Services,http://www.sbsas.org/,1-760-369-3353,N/A
Crisis Center,Alamosa,Colorado,Tu Casa Inc.,http://www.slvtucasa.net/,1-719-589-2465,N/A 
Crisis Center,Aspen,Colorado,Response: Help for Survivors of Domestic Violence and Sexual Assault,http://www.responsehelps.org/,1-970-925-5357,N/A 
Crisis Center,Avon,Colorado,Bright Future Foundation for Eagle County,http://www.brightfuturefoundation-ec.org/,1-800-799-7233,N/A 
Crisis Center,Boulder,Colorado,MESA—Moving to End Sexual Assault,http://www.movingtoendsexualassault.org/,1-303-443-7300,info@movingtoendsexualassault.org
Crisis Center,Canon City,Colorado,Family Crisis Services,http://www.familycrisisonline.com/,1-719-275-2429,N/A 
Crisis Center,Colorado Springs,Colorado,T•E•S•S•A,http://www.tessacs.org/,1-719-633-3819,N/A 
Crisis Center,Cortez,Colorado,"RENEW, Inc.",http://www.renew-inc.org/,1-970-565-2100,info@renew-inc.org
Crisis Center,Craig,Colorado,Advocates--Crisis Support Services,N/A,1-970-824-2400,N/A 
Crisis Center,Denver,Colorado,Rape Assistance & Awareness Program,N/A,1-970-824-2400,N/A 
Crisis Center,Durango,Colorado,Sexual Assault Services Organization,http://durangosaso.org/,1-970-247-5400,N/A 
Crisis Center,Fort Collins,Colorado,Sexual Assault Victim Advocate Center (SAVA),http://www.savacenter.org/,1-877-352-7273,contact@savacenter.org
Crisis Center,Fort Morgan,Colorado,"Sexual Assault Response Advocates (S.A.R.A.), Inc.",http://www.sarainc.org/,1-855-440-7272,contact.sarainc@yahoo.com
Crisis Center,Glenwood Springs,Colorado,Advocate Safehouse Project,http://advocatesafehouseproject.org/,1-970-945-4439,N/A 
Crisis Center,Grand Junction,Colorado,Latimer House,http://www.htop.org/,1-970-241-6704,N/A 
Crisis Center,Greeley,Colorado,A.S.A.P. (Assault Survivors Advocacy Program),http://www.unco.edu/asap/,1-970-351-4040,N/A 
Crisis Center,Hot Sulphur Springs,Colorado,Advocates For A Violence Free Community,http://www.gcadvocates.org/,1-970-725-3412,N/A 
Crisis Center,La Junta,Colorado,Arkansas Valley Resource Center,http://www.avresourcecenter.org/,1-719-384-7764,N/A 
Crisis Center,Lamar,Colorado,Domestic Safety Resource Center,N/A,1-800-639-4895,N/A 
Crisis Center,Montrose,Colorado,Tri-County Resources,http://www.htop.org/,1-970-249-2486,N/A 
Crisis Center,Ordway,Colorado,Arkansas Valley Resource Center,http://www.avresourcecenter.org/,1-719-384-7764,N/A 
Crisis Center,Pueblo,Colorado,Pueblo Rape Crisis Center,http://rapecrisisservices.org/,1-877-425-7727,N/A 
Crisis Center,Steamboat Springs,Colorado,Advocates Building Peaceful Communties,http://www.advocatesbpc.org/,1-970-879-8888,N/A 
Crisis Center,Telluride,Colorado,San Miguel Resource Center,http://sanmiguelresourcecenter.org/,1-970-728-5660,N/A 
Crisis Center,Trinidad,Colorado,Advocates Against Domestic Assault,N/A,1-719-846-6665,N/A 
Crisis Center,Bridgeport,Connecticut,The Center for Women and Families,http://www.cwfefc.org/,1-888-774-2900,N/A
Crisis Center,Danbury,Connecticut,The Women's Center,http://www.womenscenterofgreaterdanbury.org/,1-203-731-5204,womenscenter@wcogd.org
Crisis Center,Hartford,Connecticut,YWCA New Britain,http://www.ywcanewbritain.org/,1-860-547-1022,N/A
Crisis Center,Milford,Connecticut,"Rape Crisis Center of Milford, Inc.",http://www.rapecrisiscenterofmilford.org/,1-888-999-5545,N/A
Crisis Center,New Britain,Connecticut,YWCA New Britain,http://www.ywcanewbritain.org/,1-860-223-1787,N/A
Crisis Center,Stamford,Connecticut,The Center for Sexual Assault Crisis Counseling and Education,http://www.thecenter-ct.org/,1-888-569-8332,info@thecenter-ct.org
Crisis Center,Waterbury,Connecticut,"Safe Haven of Greater Waterbury, Inc.",http://www.safehavengw.org/,1-203-753-3613,N/A
Crisis Center,Williamantic,Connecticut,Sexual Assault Crisis Center of Eastern CT,http://saccec.org/,1-860-456-2789,N/A
Crisis Center,Washington,D.C.,Network for Victim Recovery of DC,http://www.nvrdc.org,1-800-641-4028,N/A
Crisis Center,Washington,D.C.,National Sexual Assault Hotline -- Operated by RAINN,http://www.rainn.org/,N/A,N/A
Crisis Center,Washington,D.C.,DC Rape Crisis Center,http://www.dcrcc.org/,1-202-333-7273,N/A
Crisis Center,Wilmington,Delaware,ContactLifeline,http://www.contactlifeline.org/,1-800-262-9800,N/A
Crisis Center,Wilmington,Delaware,"ContactLifeline, INC",http://www.contactlifeline.org/,1-302-761-9100,N/A
Crisis Center,Bradenton,Florida,Manatee Glens Rape Crisis,http://www.manateeglens.org/,(941) 708-6059,HR@manateeglens.org
Crisis Center,Clearwater,Florida,Suncoast Center Inc.,http://www.suncoastcenter.org/,(800) 530-7273,communications@suncoastcenter.org
Crisis Center,Cocoa  ,Florida,2-1-1 Brevard,http://www.211brevard.org/,(321) 631-9290,N/A
Crisis Center,Cocoa Beach,Florida,2-1-1 Brevard,http://www.211brevard.org/,(321) 631-9290,N/A
Crisis Center,Dade City,Florida,"Sunrise of Pasco, Inc.",http://www.sunrisepasco.org/,(352) 521-3120,N/A
Crisis Center,Daytona Beach,Florida,The Children's Advocacy Center Rape Crisis Services,http://childrensadvocacy.org/,(386) 238-3830,tkarol@childrensadvocacy.org
Crisis Center,Fort Meyers,Florida,Abuse Counseling and Treatment (ACT),http://www.actabuse.com/,(800) 500-1119,act@actabuse.com
Crisis Center,Ft Lauderdale,Florida,Nancy J. Cotterman Center,http://www.broward.org/HumanServices/CommunityPartnerships/NancyJCottermanCenter/Pages/Default.aspx,(954) 761-7273,N/A
Crisis Center,Gainesville,Florida,Alachua County Victim Services and Rape Crisis Center,http://www.alachuacounty.us/depts/css/victimservices/pages/victimservices.aspx,(866) 252-5439,N/A
Crisis Center,Jacksonville,Florida,Sexual Assault Response Center,N/A,(904) 358-7273,N/A
Crisis Center,Jacksonville,Florida,Women’s Center of Jacksonville,http://www.womenscenterofjax.org/,(904) 721-7273,N/A
Crisis Center,Lake City,Florida,"Another Way, Inc.",http://www.anotherwayinc.net/, (866) 875-7983,N/A
Crisis Center,Lakeland,Florida,Peace River Center,http://www.peacerivercenter.org/,(877) 688-5077,N/A
Crisis Center,Lantana,Florida,"211 Palm Beach Treasure Coast, Inc.",http://www.211palmbeach.org/,(866) 891-7273,N/A
Crisis Center,Leesburg,Florida,"Haven of Lake & Sumter Counties, Inc.",http://www.havenlakesumter.org/,(352) 787-1379,N/A
Crisis Center,Melbourne,Florida,2-1-1 Brevard,http://www.211brevard.org/, (321) 631-9290,N/A
Crisis Center,Miami,Florida,Roxcy Bolton Rape Treatment Center,http://www.jhsmiami.org/landing.cfm?id=164,(888) 956-7273,N/A
Crisis Center,Naples,Florida,"Project Help, Inc. - Rape Crisis Program",http://www.projecthelpnaples.org/,(239) 262-7227,N/A
Crisis Center,Ocala,Florida,Rape Crisis and Spouse Abuse Center,http://ocaladvshelter.org/,(352) 622-8495,N/A
Crisis Center,Orange Park,Florida,Quigley House,http://www.quigleyhouse.org/,(800) 339-5017,N/A
Crisis Center,Orlando,Florida,"Victim Service Center of Central Florida, Inc.",http://www.victimservicecenter.com/, (407) 497-6701,VSC@ocfl.net
Crisis Center,Palm Bay,Florida,2-1-1 Brevard,http://www.211brevard.org/,(321) 631-9290,N/A
Crisis Center,Panama City,Florida,Salvation Army DV & Rape Crisis Program,N/A,(800) 252-2597,N/A
Crisis Center,Pensacola,Florida,Lakeview Center,http://www.elakeviewcenter.org/, (850) 433-7273,N/A
Crisis Center,Punta Gorda,Florida,Center for Abuse and Rape Emergencies,http://www.carefl.org/,(941) 627-6000,help@carefl.org
Crisis Center,Rockledge,Florida,2-1-1 Brevard,http://www.211brevard.org/,(321) 631-9290,N/A
Crisis Center,Sanford,Florida,Sexual Assault Victim Services,http://savsinc.com/,(407) 665-6112,N/A
Crisis Center,Sarasota,Florida,Safe Place and Rape Crisis Center (SPARCC),http://www.sparcc.net/,(941) 365-1976,N/A
Crisis Center,Satellite Beach,Florida,2-1-1 Brevard,http://www.211brevard.org/,(321) 631-9290,N/A
Crisis Center,Spring Hill,Florida,Dawn Center of Hernando County for Sexual & Domestic Violence Assistance,http://www.dawncenter.org/,(352) 686-8430,N/A
Crisis Center,St. Augustine,Florida,Betty Griffin House,http://www.bettygriffinhouse.org/, (904) 824-1555,N/A
Crisis Center,Tallahassee,Florida,Refuge House/Rape Crisis Center,http://www.refugehouse.com/,(800) 500-1119,N/A
Crisis Center,Tampa,Florida,"Crisis Center of Tampa Bay, Inc.",http://www.crisiscenter.com/,(813) 234-1234,N/A
Crisis Center,Titusville,Florida,2-1-1 Brevard,http://www.211brevard.org/, (321) 631-9290,N/A
Crisis Center,Viera,Florida,Sexual Assault Victim Services,http://savsinc.com/,(321) 784-4357,tandersen@sa18.state.fl.us
Crisis Center,Athens,Georgia,The Cottage Sexual Assault Center,http://www.northgeorgiacottage.org/,(877) 363-1912,N/A 
Crisis Center,Atlanta,Georgia,Grady Rape Crisis Center,http://www.gradyhealth.org/,(404) 616-4861,N/A 
Crisis Center,Augusta,Georgia,Rape Crisis and Sexual Assault Services,https://www.universityhealth.org/specialty-units-centers/rape-crisis-and-sexual-assault-services,(706) 724-5200,N/A 
Crisis Center,Blairsville,Georgia,SAFE Inc.,N/A,(800) 334-2836,N/A 
Crisis Center,Blue Ridge,Georgia,North Georgia Mountain Crisis Network,N/A,(706) 379-3000,N/A 
Crisis Center,Carrolton,Georgia,West Georgia Rape Crisis Center,http://www.westga.edu/~crcc/,(770) 834-7273,N/A 
Crisis Center,Clayton,Georgia,"F.A.I.T.H. in Rabun County, Inc.",http://www.faith-inc.org/,(888) 782-1338,stopabuse@faith-inc.org
Crisis Center,Columbus,Georgia,Sexual Assault Support Center,http://sexualassaultsupportcenter.com/,(706) 571-6010,N/A 
Crisis Center,Decatur,Georgia,DeKalb Rape Crisis Center,http://www.dekalbrapecrisiscenter.org/, (404) 377-1428,N/A 
Crisis Center,Dublin,Georgia,"Women in Need of God’s Shelter, Inc.",http://wings03.org/,(478) 272-8000,N/A 
Crisis Center,Duluth,Georgia,Gwinnett Sexual Assault Center,http://www.gsac-cac.org/, (770) 476-7407,N/A 
Crisis Center,Ft. Oglethorpe,Georgia,Sexual Assault Victim's Advocacy Center,http://center4sava.org/,(800) 274-2211,N/A 
Crisis Center,Gainesville,Georgia,"Rape Response, Inc.",http://www.raperesponse.com/,(800) 721-1999,N/A 
Crisis Center,Jonesboro,Georgia,Southern Crescent Sexual Assault Center,http://www.scsac.org/,(770) 477-2177,support@scsac.org
Crisis Center,Macon,Georgia,Crisis line and Safe House of Central Georgia,http://www.cl-sh.org/,(478) 745-9292,N/A 
Crisis Center,Marietta,Georgia,YWCA of NW Georgia,http://www.ywcanwga.com/,(770) 427-3390,N/A 
Crisis Center,Rome,Georgia,The Sexual Assault Center of Northwest Georgia,http://www.sacnwga.com/,(706) 802-0580,N/A 
Crisis Center,Savannah,Georgia,"Rape Crisis Center of the Coastal Empire, Inc.",http://rccsav.org/,(888) 241-7273,N/A 
Crisis Center,Statesboro,Georgia,Statesboro Regional Sexual Assault Center,http://www.srsac.org/,(866) 489-2225,N/A 
Crisis Center,Valdosta,Georgia,The Haven,http://www.valdostahaven.org/,(800) 334-2836,N/A 
Crisis Center,Warner Robins,Georgia,HODAC’s Victim Resource Center,http://www.hodac.org/,(800) 338-6745,N/A 
Crisis Center,Waycross,Georgia,Satilla Advocacy Services,N/A, (912) 283-0987,N/A 
Crisis Center,Hilo,Hawaii,YWCA of Hawaii Island,http://ywcahawaiiisland.org/,(808) 935-0677,info@empact-spc.com
Crisis Center,Honolulu,Hawaii,Sex Abuse Treatment Center,http://www.satchawaii.org/,(808) 524-7273,N/A
Crisis Center,Lihue,Hawaii,Kauai YMCW Sexual Assault Treatment,http://www.ywcakauai.org/,(808) 245-4144,N/A
Crisis Center,Wailuku,Hawaii,Child and Family Services Maui,http://www.cfs-hawaii.org/,(808) 873-8624,N/A
Crisis Center,Blackfoot,Idaho,Bingham Crisis Center,N/A,(208) 681-8713,N/A 
Crisis Center,Boise,Idaho,Women's and Children's Alliance,http://www.wcaboise.org/,(208) 343-7025,N/A 
Crisis Center,Bonners Ferry,Idaho,Boundary County Youth Crisis and Domestic Violence Hotline,N/A, (208) 267-7334,N/A 
Crisis Center,Coeur d'Alene,Idaho,North Idaho Violence Prevention Center--Women's Center,http://www.nivpc.org/,(208) 664-9303,wcgen@nivpc.org
Crisis Center,Driggs,Idaho,Family Safety Network,http://www.familysafetynetwork.info/,(208) 354-7233,N/A 
Crisis Center,Hailey,Idaho,Advocates for Survivors of Domestic Violence and Sexual Assault,http://www.theadvocatesorg.org/,(888) 676-0066,N/A 
Crisis Center,Idaho Falls,Idaho,Domestic Violence and Sexual Assault Center,https://www.facebook.com/pages/Domestic-Violence-Sexual-Assault-Center/123279711082925, (208) 235-2412,N/A 
Crisis Center,Lewiston,Idaho,YWCA Lewiston/Clarkston Crisis Services,http://www.ywcaidaho.org/, (800) 669-3176,N/A 
Crisis Center,Malad City,Idaho,Oneida Crisis Center,http://www.oneidacrisiscenter.com/, (208) 766-3119,N/A 
Crisis Center,McCall,Idaho,Rose Advocates,http://roseadvocates.org/,(208) 414-0740,roseadvocates@ruralnetwork.net 
Crisis Center,Nampa,Idaho,Valley Crisis Center,N/A,(208) 465-5011,N/A 
Crisis Center,Pocatello,Idaho,Family Services Alliance of Southeast Idaho,http://www.fsalliance.org/,(208) 251-4357,N/A 
Crisis Center,Rexburg,Idaho,Family Crisis Center,N/A,(800) 962-5601,N/A 
Crisis Center,Salmon,Idaho,Lemhi County Crisis Intervention / Mahoney Family Safety Center,http://mahoneyhouse.com/,(208) 940-0600,N/A 
Crisis Center,Weiser,Idaho,Rose Advocates,http://roseadvocates.org/,(208) 414-0740,N/A 
Crisis Center,Arlington Heights,Illinois,Northwest Center Against Sexual Assault,http://www.nwcasa.org/,(888) 802-8890,N/A
Crisis Center,Aurora,Illinois,"Mutual Ground, Inc.",http://www.mutualgroundinc.com/,(630) 897-8383,N/A
Crisis Center,Carbondale,Illinois,Women's Services Rape Crisis Center,http://www.thewomensctr.org/,(800) 334-2094,N/A
Crisis Center,Charleston,Illinois,Sexual Assault Counseling and Information Service,http://www.sacis.org,(888) 345-2846,sacisch@consolidated.net
Crisis Center,Chicago,Illinois,YWCA Metro Chicago,http://ywcachicago.org/sasvc.htm,(888) 293-2080,N/A
Crisis Center,Chicago Heights,Illinois,YWCA -- South Suburban Center,N/A,(708) 748-5672,N/A
Crisis Center,Crystal Lake,Illinois,CARE Center,http://www.nwcasa.org/,(815) 363-5299,N/A
Crisis Center,DeKalb,Illinois,Safe Passage Domestic Violence and Sexual Assault Agency,http://www.safepassagedv.org/,(815) 756-5228,N/A
Crisis Center,Decatur,Illinois,Growing Strong Sexual Assault Center,http://www.growingstrongcenter.org/,(217) 428-0770,N/A
Crisis Center,Dixon,Illinois,YWCA of the Sauk Valley,N/A,(815) 288-1011,N/A
Crisis Center,Edgemont,Illinois,Call For Help Sexual Assault Victim's Care Unit,http://www.callforhelpinc.org/,(618) 397-0975,info@callforhelpinc.org
Crisis Center,Elgin,Illinois,"Community Crisis Center, Inc.",http://www.crisiscenter.org/,(847) 697-2380,N/A
Crisis Center,Galena,Illinois,Riverview Center Sexual Assault Intervention/Prevention Services,http://www.riverviewcenter.org/,(888) 707-8155,N/A
Crisis Center,Glendale Heights,Illinois,YWCA of DuPage/West Surburban Area,http://www.ywcachicago.org/,(630) 971-3927,N/A
Crisis Center,Gurnee,Illinois,Zacharias Sexual Abuse Center,http://centers.rainn.org/details.cfm/rape-crisis-center-details/www.zcenter.org, (847) 872-7799,N/A
Crisis Center,Hickory Hills,Illinois,Pillars,http://www.pillarscommunity.org/,(708) 482-9600,N/A
Crisis Center,Joliet,Illinois,Guardian Angel Community Services,http://www.gacsprograms.org,(815) 730-8984,N/A
Crisis Center,Kankakee,Illinois,KC-CASA,http://www.kc-casa.org/,(815) 932-3322,info@kc-casa.org
Crisis Center,Macomb,Illinois,Western Illinois Regional Council Sexual Assault Program,http://www.wirpc.org/, (309) 837-5555,N/A
Crisis Center,Moline,Illinois,Family Resources Rape/Sexual Assault Program,http://www.famres.org/,(309) 797-1777,N/A
Crisis Center,Peoria,Illinois,Center for Prevention of Abuse,http://www.centerforpreventionofabuse.org/,(800) 559-7233,N/A
Crisis Center,Princeton,Illinois,Freedom House,http://www.freedomhouseillinois.com/,(800) 474-6031,N/A
Crisis Center,Quincy,Illinois,Quanada Sexual Assault Program,http://www.quanada.org/,(800) 369-2287,N/A
Crisis Center,Robinson,Illinois,Counseling and Information for Sexual Assault/Abuse,N/A,(866) 288-4888,N/A
Crisis Center,Rockford,Illinois,"Rockford Sexual Assault Counseling, Inc.",http://www.rsaconline.org/,(800) 564-8441,N/A
Crisis Center,Springfield,Illinois,Prairie Center Against Sexual Assault,http://www.prairiecasa.org/,(217) 753-8081,N/A
Crisis Center,Sterling,Illinois,YWCA of the Sauk Valley,http://www.ywca.org/saukvalley,(815) 626-7277,N/A
Crisis Center,Streator,Illinois,ADV/SAS,http://www.advsas.org/,(800) 892-3375,mmorrison@advsas.org
Crisis Center,Tilton,Illinois,Vermilion County Rape Crisis Center,http://www.vcrapecrisiscenter.org/, (217) 446-1337,N/A
Crisis Center,Urbana,Illinois,"Rape Advocacy, Counseling, & Education Services",http://www.cu-races.org/, (877) 236-3727,N/A
Crisis Center,Vandalia,Illinois,Sexual Assault and Family Emergencies,http://www.safecrisiscenter.org/,(800) 625-1414,safe@safecrisiscenter.org
Crisis Center,Anderson,Indiana,"Alternatives, Inc.",http://www.alternativesdv.org/,(866) 593-9999,N/A
Crisis Center,Bloomington,Indiana,Middle Way House Rape Crisis Center,http://www.middlewayhouse.org/,(812) 336-0846,MWHcommunications@gmail.com
Crisis Center,Crawfordsville,Indiana,Family Crisis Shelter of Montgomery County Inc.,http://www.familycrisisshelter.org/,(800) 370-4103,N/A
Crisis Center,Evansville,Indiana,Albion Fellows Bacon Center,http://www.albionfellowsbacon.org/,(812) 424-7273,N/A
Crisis Center,Fort Wayne,Indiana,"REACT Rape Awareness Program of the Women’s Bureau, Inc.",http://www.womensbureau.org/,(888) 311-7273,N/A
Crisis Center,Gary,Indiana,Crisis Center,http://www.crisiscenterysb.org,(800) 519-0469,N/A
Crisis Center,Indianapolis,Indiana,Crisis & Suicide Intervention,http://mhaindy.net/,(317) 251-7575,info@mhaindy.net
Crisis Center,Jasper,Indiana,"Crisis Connection, Inc.",http://www.crisisconnectioninc.org/,(800) 245-4580,N/A
Crisis Center,Lafayette,Indiana,Lafayette Crisis Center,http://www.lafayettecrisiscenter.org/,(765) 742-0244,N/A
Crisis Center,Lawrenceburg,Indiana,"Directions of Community Mental Health Center, Inc.",http://www.rapecrisissas.org/,(877) 849-1248,N/A
Crisis Center,Marion,Indiana,Hands of Hope,http://www.famservices.com/,(800) 434-8973,N/A
Crisis Center,Muncie,Indiana,A Better Way Crisis & Information Center,http://www.abetterwaymuncie.org/,(765) 288-4357,N/A
Crisis Center,Muncie,Indiana,A Better Way Crisis & Information Center,http://www.abetterwaymuncie.org/,(765) 288-4357,N/A
Crisis Center,New Albany,Indiana,Center for Women and Families,http://www.thecenteronline.org/,(877) 803-7577,N/A
Crisis Center,Noblesville,Indiana,"Prevail, Inc.",http://prevailinc.com/,(317) 776-3472,prevail@prevailinc.com
Crisis Center,Rensselaer,Indiana,"North Central Indiana Rural Crisis Center, Inc.",http://ncircc.com/, (800) 933-0374,N/A
Crisis Center,Salem,Indiana,Hoosier Hills Pact DV Shelter,http://pactchangeslives.com/,(888) 883-1959,N/A
Crisis Center,South Bend,Indiana,S-O-S of the Family Justice Center,http://fjcsjc.org/,(574) 289-4357,N/A
Crisis Center,Valparaiso,Indiana,"The Caring Place, Inc.",http://www.thecaringplacenwi.org/,(219) 464-2128,N/A
Crisis Center,Adel,Iowa,Crisis Intervention & Advocacy Center,N/A,(800) 400-4884,N/A
Crisis Center,Ames,Iowa,ACCESS,http://www.assaultcarecenter.org/,(800) 203-3488,N/A
Crisis Center,Carroll,Iowa,Family Crisis Center of Northwest Iowa,N/A,(888) 356-2006,N/A
Crisis Center,Council Bluffs,Iowa,Catholic Charities DV/SA Program,http://www.catholiccharitiesdm.org,(888) 612-0266,keriea@rainn.org
Crisis Center,Davenport,Iowa,Quad Cities Rape/Sexual Assault Counseling Program/Family Resources Inc.,http://www.famres.org/,(563) 326-9191,N/A
Crisis Center,Dubuque,Iowa,Riverview Center Sexual Assault Prevention & Intervention Services,http://www.riverviewcenter.org/,(888) 557-0310,N/A
Crisis Center,Mason City,Iowa,Crisis Intervention Service,http://www.cishelps.org/,(800) 479-9071,N/A
Crisis Center,Ottumwa,Iowa,Crisis Center & Women’s Shelter,http://www.ottumwacrisiscenter.org,(800) 464-8340,N/A
Crisis Center,Sioux Center,Iowa,Family Crisis Center,http://www.familycrisiscenters.org/,(800) 382-5603,N/A
Crisis Center,Spencer,Iowa,Centers Against Abuse & Sexual Assault (CAASA),http://www.caasaonline.org,(712) 580-4482,N/A
Crisis Center,Dodge City,Kansas,Crisis Center of Dodge City,N/A,(866) 270-2270,N/A
Crisis Center,Emporia,Kansas,"SOS, Inc.",http://www.soskansas.com/,(800) 825-1295,N/A
Crisis Center,Great Bend,Kansas,Family Crisis Center,http://www.familycrisiscntr.org/,(866) 792-1885,N/A
Crisis Center,Hays,Kansas,Options Domestic & Sexual Violence Services,http://www.help4abuse.org/, (800) 794-4624,N/A
Crisis Center,Hutchinson,Kansas,Sexual Assault And Domestic Violence Center of Reno County,http://www.sadvchutch.org/,(800) 701-3630,N/A
Crisis Center,Iola,Kansas,Hope Unlimited,http://www.hope-unlimited.org,(620) 365-7566,N/A
Crisis Center,Lawrence,Kansas,GaDuGi SafeCenter,http://www.gadugisafecenter.org/,(785) 843-8985,support@gadugisafecenter.org
Crisis Center,Leavenworth,Kansas,Alliance Against Family Violence,http://www.aafv.net/, (800) 644-1441,N/A
Crisis Center,Liberal,Kansas,"Liberal Area Rape Crisis/DV Services, Inc.",http://www.larcdvs.org/,(620) 624-8818,N/A
Crisis Center,Manhattan,Kansas,"The Crisis Center, Inc.",http://www.thecrisiscenterinc.org/,(800) 727-2785,N/A
Crisis Center,Overland Park,Kansas,SAFEHOME,http://www.safehome-ks.org/,(913) 262-2868,N/A
Crisis Center,Pittsburg,Kansas,Safehouse Crisis Center,http://www.crisisresourcecenter.org/,(800) 794-9148,N/A
Crisis Center,Salina,Kansas,DVACK,http://www.dvack.org/,(800) 874-1499,N/A
Crisis Center,Topeka,Kansas,YWCA Center for Safety and Empowerment,http://www.ywcatopeka.org/,(888) 822-2983,N/A
Crisis Center,Wichita,Kansas,Wichita Area Sexual Assault Center,http://www.wichitasac.com/, (877) 917-2248,N/A
Crisis Center,Winfield,Kansas,"Safe Homes, Inc.",http://safehomesinc.org/,(800) 794-7672,N/A
Crisis Center,Ashland,Kentucky,Pathways Inc.,http://www.pathways-ky.org/,(800) 562-8909,N/A
Crisis Center,Bowling Green,Kentucky,Hope Harbor,http://www.hopeharbor.net/,(270) 846-1100,N/A
Crisis Center,Corbin,Kentucky,Cumberland River Victims Services,http://crrvs.org/,(606) 523-2520,N/A
Crisis Center,Elizabethtown,Kentucky,Advocacy & Support Center,http://www.advocacysupportcenter.com/,(877) 672-2124,N/A
Crisis Center,Hazard,Kentucky,The Rising Center,http://www.krccnet.com/,(800) 375-7273,N/A
Crisis Center,Hebron,Kentucky,Women’s Crisis Center,http://www.wccky.org/,(800) 928-3335,N/A
Crisis Center,Hopkinsville,Kentucky,"Sanctuary, Inc.",http://www.sanctuaryinc.net/,(800) 766-0000,N/A
Crisis Center,Lexington,Kentucky,Bluegrass Rape Crisis Center,http://www.bluegrassrapecrisis.org/,(859) 253-2511,N/A
Crisis Center,Louisville,Kentucky,The Center for Women & Families,http://www.thecenteronline.org/,(877) 803-7577,N/A
Crisis Center,Owensboro,Kentucky,New Beginnings Sexual Assault Support Services,http://nbowensboro.org/,(800) 226-7273,N/A
Crisis Center,Paducah,Kentucky,Purchase Area Sexual Assault and Child Advocacy Center,http://www.pasacky.org/,(800) 928-7273,N/A
Crisis Center,Prestonsburg,Kentucky,Mountain Comprehensive Care Center,http://www.mtcomp.org/, (800) 422-1060,pbishnoi@mtcomp.org
Crisis Center,Somerset,Kentucky,Adanta Sexual Assault Resource Center,http://www.adanta.org/,(800) 633-5599,N/A
Crisis Center,Baton Rouge,Louisiana,Sexual Trauma Awareness & Response Center (STAR),http://www.brstar.org/, (225) 383-7273,info@brstar.org 
Crisis Center,Bogalusa,Louisiana,"ADAPT, Inc.",http://www.adaptofbugalusa.org/,(985) 732-4961,N/A
Crisis Center,Hammond,Louisiana,Tri-Parish Victim Assistance Rape Crisis,http://www.21jdda.org/,(985) 748-6882,N/A
Crisis Center,Houma,Louisiana,The Haven,http://www.havenhelps.org/,(985) 872-0450,julie@havenhelps.org 
Crisis Center,Jefferson,Louisiana,Metropolitan Center for Women and Children,http://www.mcwcgno.org/, (504) 837-5400,N/A
Crisis Center,Lafayette,Louisiana,Hearts of Hope,http://www.theheartsofhope.org/,(337) 233-7273,N/A
Crisis Center,Lake Charles,Louisiana,Oasis A Safe Haven,http://www.cwshelter.org/, (866) 570-7273,N/A
Crisis Center,Monroe,Louisiana,The Wellspring,http://www.wellspringalliance.org/,(800) 716-7233,N/A
Crisis Center,New Orleans,Louisiana,New Orleans Family Justice Center,http://www.neworleansfjc.org/,(504) 866-9554,N/A
Crisis Center,Opelousas,Louisiana,St. Landry-Evangeline Sexual Assault Center,N/A,(800) 656-4673,N/A
Crisis Center,Ruston,Louisiana,Pine Hills Sexual Assault Center,http://lincolnparish.org/DA/pages/pine_hills.html,(318) 255-7273,N/A
Crisis Center,Bangor,Maine,Rape Response Services,http://www.rrsonline.org/,(800) 310-0000,N/A
Crisis Center,Brunswick,Maine,Sexual Assault Support Services of Midcoast Maine,http://www.sassmm.org/,(800) 822-5999,administration@sassmm.org
Crisis Center,Farmington,Maine,Sexual Assault Prevention and Response Services,http://www.sapars.org/,(800) 871-7741,N/A
Crisis Center,Portland,Maine,Sexual Assault Response Services of Southern Maine,http://www.sarsonline.org/,(800) 313-9900,infosars@sarsonline.org
Crisis Center,Presque Isle,Maine,Sexual Assault Support Line,http://www.amhc.org/,(800) 550-3304,N/A
Crisis Center,Winthrop,Maine,Sexual Assault Crisis & Support Center,http://www.silentnomore.org/,(800) 871-7741,N/A
Crisis Center,Arnold,Maryland,Anne Arundel County Sexual Assault Crisis Center,http://www.annapolisywca.org/,(410) 222-7273,N/A
Crisis Center,Baltimore,Maryland,Baltimore County Domestic Violence and Sexual Assault Hotline,http://www.turnaroundinc.org/,(410) 828-6390,info@turnaroundinc.org
Crisis Center,Baltimore,Maryland,"TurnAround, Inc.",http://www.turnaroundinc.org/,(443) 279-0379,info@turnaroundinc.org
Crisis Center,Baltimore,Maryland,"TurnAround, Inc.",http://www.turnaroundinc.org/, (410) 377-8111,info@turnaroundinc.org
Crisis Center,Bel Air,Maryland,Sexual Assault/Spousal Abuse Resource Center,http://www.sarc-maryland.org/, (410) 836-8430,N/A
Crisis Center,Charlotte Hall,Maryland,"Walden/Sierra, Inc.",http://www.waldensierra.org/,(301) 863-6661,N/A
Crisis Center,Cheverly,Maryland,Domestic Violence and Sexual Assault Center at Dimensions Health Care,http://www.dimensionshealth.org/index.php/dimensions-health-services-prince-georges-county-maryland-md/,(301) 618-3154,N/A
Crisis Center,Columbia,Maryland,HopeWorks of Howard County Inc.,http://www.wearehopeworks.org/,(800) 752-0191,N/A
Crisis Center,Cumberland,Maryland,Family Crisis Resource Center,http://www.familycrisisresourcecenter.org/,(301) 759-9244,N/A
Crisis Center,Easton,Maryland,"For All Seasons, Inc.",http://www.forallseasonsinc.org/,(800) 310-7273,N/A
Crisis Center,Elkton,Maryland,Cecil County DV Rape Crisis Program,N/A,(410) 996-0333,N/A
Crisis Center,Frederick,Maryland,"Heartly House, Inc.",http://www.heartlyhouse.org/,(301) 662-8800,ceo@heartlyhouse.org
Crisis Center,Hagerstown,Maryland,"CASA, Inc.",http://www.casainc.org/, (301) 739-8975,N/A
Crisis Center,Oakland,Maryland,Dove Center,http://www.gcdovecenter.org/,(301) 334-9000,N/A
Crisis Center,Prince Frederick,Maryland,Calvert County Health Department Crisis Intervention Center,http://www.calverthealth.org/personalhealth/crisisintervention/index.htm, (301) 855-1075,N/A
Crisis Center,Prince Frederick,Maryland,Calvert County Health Department Crisis Intervention Center,http://www.calverthealth.org/crisis_intervention/crisisintervention.htm,(410) 535-1121,N/A
Crisis Center,Rockville,Maryland,Victim Assistance & Sexual Assault Program,http://www.vasap.org/,(240) 777-4247,N/A
Crisis Center,Salisbury,Maryland,Life Crisis Center,http://www.lifecrisiscenter.org/,(410) 749-4357,N/A
Crisis Center,Towson,Maryland,"TurnAround, Inc.",http://www.turnaroundinc.org/,(443) 279-0379,info@turnaroundinc.org
Crisis Center,Waldorf,Maryland,Center for Abused Persons,http://centerforabusedpersons.com/,(301) 645-3336,N/A
Crisis Center,Westminster,Maryland,Rape Crisis Intervention Service of Carroll County,http://www.rapecrisiscc.org/,(410) 857-7322,N/A
Crisis Center,Amherst,Massachusetts,Center For Woman and Community,http://www.umass.edu/ewc,(888) 337-0800,ewcmail@admin.umass.edu
Crisis Center,Brockton,Massachusetts,A New Day,http://www.anewdayma.org/,(888) 293-7273,N/A
Crisis Center,Cambridge,Massachusetts,Boston Area Rape Crisis Center,http://www.barcc.org/,(800) 841-8371,N/A
Crisis Center,Framingham,Massachusetts,Voices Against Violence,http://www.smoc.org/index.asp?pgid=45,(800) 593-1125,N/A
Crisis Center,Greenfield,Massachusetts,NELCWIT: New England Learning Center for Women in Transition,http://www.nelcwit.org/,(413) 772-0806,N/A
Crisis Center,Hyannis,Massachusetts,Independence House/Cape Cod Rape Crisis Center,http://www.independencehouse.org/,(800) 439-6507,N/A
Crisis Center,Lawrence,Massachusetts,YWCA of Greater Lawrence,http://www.ywcalawrence.org/,(877) 509-9922,N/A
Crisis Center,Lowell,Massachusetts,"The Center for Hope and Healing, Inc.",http://www.centerforhopehealing.org/, (800) 542-5212,info@centerforhopehealing.org
Crisis Center,Lynn,Massachusetts,North Shore Rape Crisis Center,http://www.nsrcc.org/,(800) 922-8772,N/A
Crisis Center,Milford,Massachusetts,Wayside Trauma Intervention Services,http://www.rapecrisiscenter.org/,(800) 511-5070,N/A
Crisis Center,Nantucket,Massachusetts,A Safe Place,http://www.asafeplacenantucket.org/,(508) 228-2111,info@asafeplacenantucket.org
Crisis Center,New Bedford,Massachusetts,The Women's Center,http://www.thewomenscentersc.com/,(508) 999-6636,N/A
Crisis Center,Pittsfield,Massachusetts,Elizabeth Freeman Center,N/A,(866) 401-2425,N/A
Crisis Center,Springfield,Massachusetts,YWCA of Western Massachusetts Sexual Assault Program,http://www.ywworks.org/,(413) 733-7100,N/A
Crisis Center,Vineyard Haven,Massachusetts,CONNECT to end violence a program of Martha's Vineyard Community Services,http://www.mvcommunityservices.com/, (508) 696-7233,N/A
Crisis Center,Worchester,Massachusetts,"Pathways for Change, Inc",http://www.centralmasspfc.org/, (800) 870-5905,N/A
Crisis Center,Adrian,Michigan,Catherine Cobb DV & SA Program,http://www.fccservices.org/, (800) 874-5936,N/A
Crisis Center,Ann Arbor,Michigan,University of Michigan Sexual Assault Prevention & Awareness Center,http://sapac.umich.edu/,(734) 936-3333,N/A
Crisis Center,Ann Arbor,Michigan,SAFE House Center,http://www.safehousecenter.org/,(734) 995-5444,info@safehousecenter.org
Crisis Center,Bay City,Michigan,Bay Area Women’s Center,http://www.bawc-mi.org/,(800) 834-2098,N/A
Crisis Center,Big Rapids,Michigan,"Women's Information Service, Inc. (WISE)",http://www.wiseagainstviolence.org/,(800) 374-9473,N/A
Crisis Center,Bloomfield Hills,Michigan,Common Ground,http://www.commongroundhelps.org/,(800) 231-1127,N/A
Crisis Center,Cadillac,Michigan,Cadillac Area OASIS/Family Resource Center,http://www.cadillacoasis-frc.org/,(800) 775-4646,N/A
Crisis Center,Coldwater,Michigan,Branch County Coalition Against Domestic Violence,http://278safe.com/,(517) 278-3356,N/A
Crisis Center,Detroit,Michigan,Detroit Police Victim Assistance Program,http://www.detroitmi.gov/DepartmentsandAgencies/PoliceDepartment/VictimsAssistance.aspx,(313) 833-1660,N/A
Crisis Center,Detroit,Michigan,YWCA of Metropolitan Detroit,http://www.ywcadetroit.org/,(313) 861-5300,N/A
Crisis Center,East Lansing,Michigan,MSU Counseling Center -- Sexual Assault Crisis Intervention,http://www.endrape.msu.edu/,(517) 372-6666,N/A
Crisis Center,Escanaba,Michigan,"Tri-County Safe Harbor, Inc.",http://www.safe3c.com,(800) 682-1649,N/A
Crisis Center,Flint,Michigan,YWCA Domestic Assault/Sexual Assault Services,http://www.ywca.org/flint,(810) 238-7233,N/A
Crisis Center,Grand Rapids,Michigan,YWCA West Central Michigan,http://www.ywcawcmi.org/,(616) 776-7273,N/A
Crisis Center,Grayling,Michigan,River House Shelter,http://riverhouseinc.org/,(888) 554-3169,office@riverhouseinc.org
Crisis Center,Holland,Michigan,Center for Women in Transition,http://www.aplaceforwomen.org/,(800) 848-5991,crisishelp@aplaceforwomen.org
Crisis Center,Houghton,Michigan,Dial Help Community Support and Outreach Center,http://www.dialhelp.org/,(866) 661-5589,N/A
Crisis Center,Howell,Michigan,LACASA Center,http://www.lacasacenter.org/,(866) 522-2725,N/A
Crisis Center,Ionia,Michigan,Relief After Violent Encounter--Ionia/Montcalm,http://raveim.org/, (800) 720-7233,administration@raveim.org
Crisis Center,Iron Mountain,Michigan,"Caring House, Inc.",http://caringhouseim.wordpress.com/,(800) 392-7839,N/A
Crisis Center,Ironwood,Michigan,"Domestic Violence Escape, Inc.",http://www.dove-inc.net/,(800) 711-6744,N/A
Crisis Center,Jackson,Michigan,AWARE Inc.,http://www.awareshelter.org/,(517) 783-2861,N/A
Crisis Center,Kalamazoo,Michigan,YWCA Domestic and Sexual Assault Program,http://www.ywcakalamazoo.org/,(269) 385-3587,N/A
Crisis Center,Lansing,Michigan,Listening Ear Crisis Center,http://www.theear.org/,(517) 337-1717,N/A
Crisis Center,Ludington,Michigan,COVE (Communities Overcoming Violent Encounters),http://www.callcove.com/,(800) 950-5808,N/A
Crisis Center,L'Anse,Michigan,Baraga County Shelter Home,http://www.homeoftheheart.org/,(906) 524-7078,N/A
Crisis Center,Marquette,Michigan,Harbor House,http://www.wcmqt.org/,(800) 455-6611,N/A
Crisis Center,Midland,Michigan,Shelterhouse,http://www.shelterhousemidland.org/,(877) 216-6383,N/A
Crisis Center,Monroe,Michigan,Mercy Memorial Rape Crisis Center,http://www.mercymemorial.org/,(734) 240-8800,N/A
Crisis Center,Mt. Clemens,Michigan,Turning Point Inc.,http://www.turningpointmacomb.org/,(586) 463-6990,N/A
Crisis Center,Mt. Pleasant,Michigan,"Women’s Aid Service, Inc.",http://www.womens-aid.org/,(989) 772-9168,N/A
Crisis Center,Muskegon,Michigan,Every Woman’s Place Crisis Center,http://www.everywomansplace.org/,(231) 722-3333,N/A
Crisis Center,Petoskey,Michigan,"Women’s Resource Center of Northern Michigan, Inc.",http://www.wrcnm.org/,(800) 275-1995,N/A
Crisis Center,Plymouth,Michigan,First Step,http://www.firststep-mi.org/,(888) 453-5900,info@firststep-mi.org
Crisis Center,Pontiac,Michigan,HAVEN,http://www.haven-oakland.org/,(877) 922-1274,N/A
Crisis Center,Port Huron,Michigan,Safe Horizons,http://bluewatersafehorizons.org/,(888) 985-5538,N/A
Crisis Center,Saginaw,Michigan,Sexual Assault Center of Child & Family Service of Saginaw,http://www.childandfamilysaginaw.org/,(989) 790-9118,N/A
Crisis Center,Saginaw,Michigan,Underground Railroad,http://www.undergroundrailroadinc.org/,(888) 399-8385,N/A
Crisis Center,Sault St. Marie,Michigan,Diane Peppler Resource Center,http://www.dprcenter.org/,(800) 882-1515,N/A
Crisis Center,St. Johns,Michigan,SafeCenter,http://www.thesafecenter.org/, (877) 952-7283,N/A
Crisis Center,Traverse City,Michigan,Women’s Resource Center - Grand Traverse Area,http://www.womensresourcecenter.org/,(800) 554-4972,N/A
Crisis Center,Aitkin,Minnesota,Support Within Reach,http://supportwithinreach.org/,(218) 927-6226,N/A
Crisis Center,Austin,Minnesota,Crime Victims’ Resource Center,N/A,(800) 349-6680,N/A
Crisis Center,Bemidji,Minnesota,Support Within Reach,http://www.supportwithinreach.org,(800) 708-2727,N/A
Crisis Center,Blue Earth,Minnesota,CADA of Faribault County,http://inspire-hope.org/,(507) 625-8688,N/A
Crisis Center,Cottage Grove,Minnesota,Canvas Health,http://canvashealth.org/,(651) 777-1117,N/A
Crisis Center,Detroit Lakes,Minnesota,Lakes Crisis and Resource Center,http://lakescrisis.com/,(877) 754-9683,N/A
Crisis Center,Duluth,Minnesota,"Program for Aid to Victims of Sexual Assault, Inc.",http://www.pavsa.org/,(218) 726-1931,N/A
Crisis Center,Eagan,Minnesota,360 Communities,http://360communities.org/,(651) 405-1500,N/A
Crisis Center,Faribault,Minnesota,HOPE Center,http://www.hopecentermn.org/,(800) 607-2330,N/A
Crisis Center,Fergus Falls,Minnesota,Someplace Safe,http://www.someplacesafe.info/, (800) 974-3359,info@someplacesafe.info
Crisis Center,Grand Rapids,Minnesota,Support Within Reach (formerly known as Itasca Alliance Against Sexual Assault),http://www.supportwithinreach.org/,(866) 747-5008,N/A
Crisis Center,Hinckley,Minnesota,WINDOW (Women in Need Depending on Other Women),http://www.windowhinkley.com,(800) 644-0003,N/A
Crisis Center,International Falls,Minnesota,Friends Against Abuse,http://www.friendsagainstabuse.com/, (218) 285-7220,info@homestead.com
Crisis Center,Little Falls,Minnesota,Hands of Hope Resource Center,http://www.handsofhope.net/, (800) 682-4547,N/A
Crisis Center,Mankato,Minnesota,"CADA, Inc.",http://inspire-hope.org/,(800) 477-0466,N/A
Crisis Center,Marshall,Minnesota,New Horizons Crisis Center,http://www.newhorizonscrisiscenter.org/,(800) 881-7493,New_Horizons.Crisis_Center@smsu.edu
Crisis Center,Minneapolis,Minnesota,Rape and Sexual Abuse Center,http://www.neighborhoodinvolve.org/rsac,(612) 825-4357,N/A
Crisis Center,Minneapolis,Minnesota,Sexual Violence Center,http://www.sexualviolencecenter.org/,(612) 871-5111,N/A
Crisis Center,New Ulm,Minnesota,CADA of Brown and Sibley Counties,http://inspire-hope.org/,(800) 477-0466,N/A
Crisis Center,Owatonna,Minnesota,Women's Resource Center of Steele County,N/A,(800) 451-1202,N/A
Crisis Center,Park Rapids,Minnesota,Support Within Reach,http://www.supportwithinreach.org/,(800) 708-2727,N/A
Crisis Center,Rochester,Minnesota,Victim Services,http://www.co.olmsted.mn.us/,(877) 289-0636,N/A
Crisis Center,Saint Cloud,Minnesota,Central Minnesota Sexual Assault Center,http://www.cmsac.org/,(800) 237-5090,N/A
Crisis Center,St. James,Minnesota,CADA of Watonwan County,http://www.co.ramsey.mn.us/,(651) 266-1000,N/A
Crisis Center,St. Paul,Minnesota,Sexual Offense Services of Ramsey County (SOS),http://www.co.ramsey.mn.us/,(651) 266-1000,N/A
Crisis Center,Two Harbors,Minnesota,North Shore Horizons,http://www.northshorehorizons.org/,(800) 834-5923,N/A
Crisis Center,Walker,Minnesota,Support Within Reach,http://www.supportwithinreach.org/,(800) 708-2727,N/A
Crisis Center,Biloxi,Mississippi,Gulf Coast Women’s Center for Nonviolence,http://www.gcwcfn.org/,(800) 800-1396,N/A
Crisis Center,Columbus,Mississippi,"Safe Haven, Inc.",N/A,(800) 890-6040,N/A
Crisis Center,Greenville,Mississippi,"Our House, Inc.",http://ourhousenb.com/,(888) 884-5683,N/A
Crisis Center,Hattiesburg,Mississippi,Shafer Center for Crisis Intervention,http://www.theshafercenter.info/,(601) 264-7078,N/A
Crisis Center,Jackson ,Mississippi,Catholic Charities Rape Crisis Center,http://www.catholiccharitiesjackson.org/,(601) 982-7273,N/A
Crisis Center,Meridian,Mississippi,Sexual Assault Crisis Services,http://www.wesleyhousemeridan.org/,(601) 482-2828,N/A
Crisis Center,Natchez,Mississippi,Guardian Sexual Assault Center,N/A,(601) 446-8668,N/A
Crisis Center,Oxford,Mississippi,Family Crisis Services of Northwest Mississippi,N/A,(800) 230-9929,N/A
Crisis Center,Tupelo,Mississippi,"Safe, Inc.",http://www.safeshelter.net/,(800) 527-7233,N/A
Crisis Center,Bonne Terre,Missouri,A Friend's Place,N/A,(800) 663-9929,N/A
Crisis Center,Branson,Missouri,Women’s Crisis Center,http://www.thewomenscrisiscenter.net/,(866) 379-0074,N/A
Crisis Center,Camdenton,Missouri,Citizens Against Domestic Violence/Victim Outreach Center,http://www.cadv-voc.org/,(888) 809-7233,N/A
Crisis Center,Cape Girardeau,Missouri,Beacon Health Center,http://www.beaconhealthcenter.com/,(877) 820-6278,N/A
Crisis Center,Columbia ,Missouri,True North Shelter,http://www.truenorthofcolumbia.org/,(800) 548-2480,N/A
Crisis Center,Fulton,Missouri,Coalition Against Rape & Domestic Violence (CARDV),http://www.callawaycardv.org/,(866) 642-4422,N/A
Crisis Center,Hannibal,Missouri,AVENUES,http://www.avenueshelp.org/,(800) 678-7713,N/A
Crisis Center,Jefferson City,Missouri,Rape & Abuse Crisis Service,http://www.racsjc.org/, (800) 303-0013,N/A
Crisis Center,Joplin,Missouri,Lafayette House,http://www.lafayettehouse.org/,(800) 416-1772,N/A
Crisis Center,Kansas City,Missouri,Metropolitan Organization to Counter Sexual Assault,http://www.mocsa.org/,(816) 531-0233,N/A
Crisis Center,Kansas City,Missouri,Metropolitan Organization to Counter Sexual Assault,http://www.mocsa.org/,(816) 931-4527,N/A
Crisis Center,Kimberling City,Missouri,Christian Associates of Table Rock Lake,N/A,(877) 507-7233,N/A
Crisis Center,Kirksville,Missouri,Victim Support Services,N/A,(800) 668-1617,N/A
Crisis Center,Lebanon,Missouri,Just COPE (Creating Opportunities for Personal Empowerment),http://copeoflebanon.com/,(877) 275-0930,N/A
Crisis Center,Moberly,Missouri,Safe Passage,N/A,(800) 616-3754,N/A
Crisis Center,Parkville,Missouri,SafeHaven -- Synergy Services,http://www.synergyservices.org/,(800) 491-1114,N/A
Crisis Center,Poplar Bluff,Missouri,"Haven House, Inc.",N/A,(800) 491-1138,N/A
Crisis Center,Rolla,Missouri,"Phelps County Family Crisis Services, Inc.",http://www.russellhouse.info/,(888) 570-3703,contact@russellhouse.info
Crisis Center,Sedalia,Missouri,"CASA, Inc.",N/A,(660) 827-5555,N/A
Crisis Center,Sikeston,Missouri,House of Refuge,N/A,(877) 633-3843,N/A
Crisis Center,Springfield,Missouri,The Victim Center,http://thevictimcenter.org/,(417) 864-7233,hope@thevictimcenter.org
Crisis Center,St Joseph,Missouri,YWCA Women's Center,http://www.ywcasj.org/,(800) 653-1477,N/A
Crisis Center,St. Charles,Missouri,Bridgeway Sexual Assault Center,http://bridgewaybh.com/, (877) 946-6854,N/A
Crisis Center,St. Louis,Missouri,YWCA St. Louis Regional Sexual Assault Center,http://www.ywcastlouis.org,(314) 531-7273,N/A
Crisis Center,St. Louis,Missouri,Safe Connections,http://www.safeconnections.org/,(314) 531-2003,N/A
Crisis Center,Warrensburg,Missouri,"Survival Adult Abuse Center, Inc",http://www.survivalcenter.org/,(800) 846-7597,N/A
Crisis Center,Warrenton,Missouri,Turning Point,http://www.turningpointdvs.com/,(888) 873-7233,info@turningpointdvs.com
Crisis Center,Billings,Montana,Gateway,http://ywcabillings.org/,(406) 245-4472,N/A
Crisis Center,Bozeman,Montana,Bozeman Help Center,http://bozemanhelpcenter.org/,(406) 586-3333,info@bozemanhelpcenter.org
Crisis Center,Bozeman,Montana,The VOICE Center,http://www.montana.edu/voice,(406) 994-7069,N/A
Crisis Center,"Butte,",Montana,Safe Space,http://www.safespaceonline.org/,(877) 335-8511,N/A
Crisis Center,Conrad,Montana,Hi-Line’s Help for Abused Spouses,http://www.hlhas.com/,(800) 219-7336,N/A
Crisis Center,Dillon,Montana,Women's Resource Center,http://www.cscofswmt.org/,(800) 253-9811,N/A
Crisis Center,Glasgow,Montana,Women’s Resource Center,http://www.thewrc.org/,(877) 972-3232,N/A
Crisis Center,Glendive,Montana,Dawson County Domestic Violence Program,http://www.dcdv.org/,(406) 989-1318,dcdv@midrivers.com
Crisis Center,Great Falls,Montana,Voices of Hope,http://www.voicesofhope.info/,(800) 273-8255,N/A
Crisis Center,Hamilton,Montana,Supporters of Abuse-Free Environments,http://www.safeinthebitterroot.org/,(406) 363-4600,N/A
Crisis Center,Havre,Montana,DAP (Domestic Abuse Program),http://www.hrdc4.org/,(406) 265-2222,N/A
Crisis Center,Helena,Montana,Friendship Center,http://thefriendshipcenter.org/,(800) 248-3166,officem@thefriendshipcenter.org
Crisis Center,Kalispell,Montana,Violence Free Crisis Line,http://www.abbieshelter.org,(406) 752-7273,N/A
Crisis Center,Lame Deer,Montana,Healing Hearts,N/A,(800) 577-6345,N/A
Crisis Center,Lewistown,Montana,"SAVES, Inc.",N/A,(800) 535-2303,N/A
Crisis Center,Libby,Montana,Lincoln County Crisis Solutions,N/A,(877) 493-7139,N/A
Crisis Center,Livingston,Montana,Tri-County Network Against Domestic & Sexual Violence,http://www.tcnadsv.org/,(406) 222-8154,N/A
Crisis Center,"Miles City,",Montana,Custer Network Against Domestic Abuse (CNADA),http://www.cnada.us/,(888) 799-0542,N/A
Crisis Center,Missoula,Montana,YWCA of Missoula,http://www.ywcaofmissoula.org/,(800) 483-7858,N/A
Crisis Center,Red Lodge,Montana,Domestic and Sexual Violence Services of Carbon County,http://www.dsvsmontana.org/,(406) 425-2222,info@dsvsmontana.org
Crisis Center,Ronan,Montana,SAFE Harbor,http://safeharbormt.org/SAFE_HARBOR/Home_Page.html,(800) 831-9987,N/A
Crisis Center,Superior,Montana,Mineral County Helpline,http://www.blackfoot.net/~mchelpline/, (406) 822-4202,N/A
Crisis Center,Auburn,Nebraska,Project Response,http://www.projectresponse.net/,(800) 456-5764,N/A
Crisis Center,Bellevue,Nebraska,Heartland Family Service,http://www.heartlandfamilyservice.org/,(800) 523-3666,N/A
Crisis Center,Broken Bow,Nebraska,Healing Hearts and Families,N/A,(800) 942-4040,N/A
Crisis Center,Columbus,Nebraska,Center for Sexual Assault & Domestic Violence Survivors,http://www.centerforsurvivors.net/,(800) 658-4482,centerforsurvivors@citlink.net
Crisis Center,Fairbury,Nebraska,Hope Crisis Center,http://www.hopecrisiscenter.org/,(877) 388-4673,N/A
Crisis Center,Fremont,Nebraska,Crisis Center for Domestic Abuse & Sexual Assault,http://www.knowanddowhatsright.com/,(888) 721-4340,N/A
Crisis Center,Gering,Nebraska,The DOVES Program,http://www.dovesprogram.com/,(866) 953-6837,N/A
Crisis Center,Grand Island,Nebraska,"Crisis Center, Inc.",http://www.gicrisis.org/,(866) 995-4422,N/A
Crisis Center,Hastings,Nebraska,Spouse Abuse/Sexual Assault Crisis Center,http://www.sasacenter.org/,(877) 322-7272,jmanzor@hastingssasa.com
Crisis Center,Kearney,Nebraska,The S.A.F.E. Center,http://www.safecenter.org/,(877) 237-2513,N/A
Crisis Center,Lexington,Nebraska,Dawson County Parent/Child Center,http://www.dawsoncountyne.net/pcc,(800) 215-3040,N/A
Crisis Center,"Lincoln,",Nebraska,Voices of Hope,http://www.voicesofhopelincoln.org/,(402) 475-7273,N/A
Crisis Center,McCook,Nebraska,Domestic Abuse/Sexual Assault Services,http://www.dasas.net/,(877) 345-5534,N/A
Crisis Center,Norfolk,Nebraska,Bright Horizons,http://www.brighthorizonsne.org/,(877) 379-3798,N/A
Crisis Center,North Platte,Nebraska,Rape & Domestic Abuse Program,http://nprdap.org/,(888) 534-3495,N/A
Crisis Center,"Ogallala,",Nebraska,Sandhills Crisis Intervention Program,http://scip.biz/,(877) 836-6055,N/A
Crisis Center,Omaha,Nebraska,Women's Center for Advancement,http://www.wcaomaha.org/,(402) 345-7273,N/A
Crisis Center,Valentine,Nebraska,North Central Quad Counties DV/SA Services,N/A,(877) 376-2080,N/A
Crisis Center,Wayne,Nebraska,Haven House Family Service Center,http://www.havenhousefsc.com/,(800) 440-4633,havenhouse@qwestoffice.net
Crisis Center,Carson City,Nevada,SARA,http://www.saraadv.org/, (775) 883-7654,N/A
Crisis Center,Elko,Nevada,Committee Against Domestic Violence,http://www.elkoharborhouse.com/, (888) 738-9454,N/A
Crisis Center,Las Vegas,Nevada,The Rape Crisis Center,http://www.rcclv.org/,(888) 366-1640,N/A
Crisis Center,Minden,Nevada,Family Support Council of Douglas County,http://www.family-support.org/,(775) 782-8692,N/A
Crisis Center,Reno,Nevada,Crisis Call Center/Sexual Assault Support Services,http://www.crisiscallcenter.org/,(800) 992-5757,info@crisiscallcenter.org
Crisis Center,Winnemucca,Nevada,Winnemucca Domestic Violence Shelter,http://www.winnemuccadvs.org/,(775) 421-1028,N/A
Crisis Center,Berlin,New Hampshire,RESPONSE,http://www.coosfamilyhealth.org/response.html,(866) 644-3574,N/A
Crisis Center,Claremont,New Hampshire,Turning Points Network,http://www.free-to-soar.org/,(800) 639-3130,N/A
Crisis Center,Concord,New Hampshire,Crisis Center of Central New Hampshire,http://www.cccnh.org/,(866) 841-6229,N/A
Crisis Center,Conway,New Hampshire,Starting Point: Services for Victims of Domestic & Sexual Violence,http://www.startingpointnh.org/,(800) 336-3795,edirector@startingpointnh.org
Crisis Center,Durham,New Hampshire,SHARPP,http://www.unh.edu/sharpp/,(888) 271-7233,N/A
Crisis Center,Keene,New Hampshire,Monadnock Center for Violence Prevention,http://www.mcvprevention.org/,(888) 511-6287,N/A
Crisis Center,Lebanon,New Hampshire,WISE,http://www.wiseoftheuppervalley.org/,(866) 348-9473,N/A
Crisis Center,Littleton,New Hampshire,The Support Center at Burchhouse,http://www.tccap.org/,(800) 774-0544,admin@tccap.org
Crisis Center,Manchester,New Hampshire,YWCA Crisis Service,http://www.ywcanh.org/,(603) 668-2299,N/A
Crisis Center,Nashua,New Hampshire,Bridges,N/A,(603) 883-3044,N/A
Crisis Center,Plymouth,New Hampshire,Voices Against Violence,http://www.voicesagainstviolence.net/,(877) 221-6176,N/A
Crisis Center,Portsmouth,New Hampshire,Sexual Assault Support Services,http://www.sassnh.org/,(888) 747-7070,N/A
Crisis Center,Brant Beach,New Jersey,St. Francis Sexual Abuse and Assault Program,http://www.stfranciscenterlbi.org/,(732) 370-4010,N/A
Crisis Center,Camden,New Jersey,Service Empowering Rights of Victims,http://www.centerffs.org/,(866) 295-7378,N/A
Crisis Center,Cape May Court House,New Jersey,Coalition Against Rape and Abuse,http://www.cara-cmc.org/,(877) 294-2272,msingleton@cara-inc.net
Crisis Center,Edison,New Jersey,Middlesex County Center for Empowerment,N/A,(877) 665-7273,N/A
Crisis Center,Flemington,New Jersey,SAFE in Hunterdon,http://www.safeinhunterdon.org/,(888) 988-4033,N/A
Crisis Center,Glassboro,New Jersey,Service Empowering Rights of Victims,http://www.centerffs.org/,(866) 295-7378,N/A
Crisis Center,Hackensack,New Jersey,YWCA of Bergen County Healing Space,http://www.ywcabergencounty.org/,(201) 487-2227,N/A
Crisis Center,Hazlet,New Jersey,180 Turning Lives Around,http://www.180nj.org/,(888) 264-7273,info@180nj.org
Crisis Center,"Jersey City,",New Jersey,Hudson County Rape Crisis Center,http://hcrcc.blogspot.com/,(201) 795-5757,N/A
Crisis Center,Lawerenceville,New Jersey,Womanspace,http://www.womanspace.org/,(609) 394-9000,N/A
Crisis Center,Linwood,New Jersey,Atlantic County Women’s Center,http://www.acwc.org/, (800) 286-4184,N/A
Crisis Center,Long Beach Township,New Jersey,St. Francis Sexual Abuse and Assault Program,http://www.stfranciscenterlbi.com/,(609) 494-1090,N/A
Crisis Center,Montclair,New Jersey,SAVE of Essex County,http://www.familyserviceleague.org/,(877) 733-2273,N/A
Crisis Center,Moorestown,New Jersey,Contact of Burlington County,http://www.contactburlco.org/,(866) 234-5006,N/A
Crisis Center,Morristown,New Jersey,Morris Cares,N/A,(973) 829-0587,N/A
Crisis Center,Newton,New Jersey,Domestic Abuse & Sexual Assault Intervention Services,http://www.dasi.org/,(973) 875-1211,N/A
Crisis Center,Paterson,New Jersey,Passaic County Women’s Center,http://www.passaiccountywomenscenter.org/,(973) 881-1450,infopcwc@njaconline.org
Crisis Center,Salem,New Jersey,Salem County Women’s Services,http://www.scwsonline.org/,(888) 632-9511,N/A
Crisis Center,Somerville,New Jersey,Women’s Health & Counseling Center,http://www.womenandhealth.org/,(908) 526-7444,N/A
Crisis Center,Washington,New Jersey,Domestic Abuse and Sexual Assault Crisis Center of Warren County,http://www.besafe.org/,(866) 623-7233,N/A
Crisis Center,Westfield,New Jersey,Union County Rape Crisis Center,http://ucnj.org/government/human-services/division-of-planning-hs/rape-crisis-center,(908) 233-7273,N/A
Crisis Center,Alamogordo,New Mexico,The Counseling Center,N/A, (575) 437-7404,N/A
Crisis Center,Albuquerque,New Mexico,The Rape Crisis Center of Central New Mexico,http://www.rapecrisiscnm.org/,(888) 811-8282,ask@rapecrisiscnm.org
Crisis Center,Bernalillo,New Mexico,"Valencia Counseling Services, Inc.",http://www.vcs-nm.com/,(505) 865-3359,N/A
Crisis Center,Carlsbad ,New Mexico,Carlsbad Counseling Associates,http://www.carlsbadmh.com/,(575) 885-8888,N/A
Crisis Center,Farmington,New Mexico,Sexual Assault Services of Northwest New Mexico,http://www.sasnwnm.org/,(866) 908-4700,N/A
Crisis Center,Hobbs,New Mexico,Guidance Center of Lea County,http://www.gclcnm.org,(575) 393-6633,N/A
Crisis Center,Las Cruces,New Mexico,La Pinon Sexual Assault Recovery Service of Southern New Mexico,http://www.lapinon.org/,(888) 595-7273,N/A
Crisis Center,Portales,New Mexico,Arise Sexual Assault Services,http://www.arisenm.org/,(575) 226-7263,N/A
Crisis Center,Roswell,New Mexico,"Counseling Associates, Inc.",N/A, (575) 623-1480,N/A
Crisis Center,Santa Fe,New Mexico,Solace Crisis Treatment Center,http://www.findsolace.org/,(800) 721-7273,mjrodcadiz@findsolace.org
Crisis Center,Silver City,New Mexico,Silver Regional Sexual Assault Support Services (SASS),http://www.silverregionalsass.org,(866) 750-6474,N/A
Crisis Center,Taos,New Mexico,Community Against Violence,http://www.taoscav.org/,(575) 758-9888,N/A
Crisis Center,Albany,New York,County of Albany Crime Victim and Sexual Violence Center,http://www.albanycounty.com/,(518) 447-7716,N/A
Crisis Center,Albion,New York,Rape Crisis Service of Planned Parenthood of Orleans County,http://www.pprsr.org/rcs,(800) 527-1757,N/A
Crisis Center,Amsterdam ,New York,Fulton Montgomery Rape Crisis Service of Planned Parenthood,N/A,(866) 307-4086,N/A
Crisis Center,Auburn,New York,SAVAR-Cayuga Counseling Services,http://www.cayugacounseling.org/,(315) 252-2112,N/A
Crisis Center,Batavia,New York,Rape Crisis Service of Planned Parenthood of Genesee County,http://www.pprsr.org/rcs,(800) 527-1757,N/A
Crisis Center,Bethpage,New York,The Safe Center LI,http://www.tscli.org/,(516) 542-0404,N/A
Crisis Center,Binghamton,New York,"Crime Victims Assistance Center, Inc.",http://www.cvac.us/,(607) 722-4256,N/A
Crisis Center,Buffalo,New York,Advocate Program,http://www.crisisservices.org/,(716) 834-3131,N/A
Crisis Center,Central Islip,New York,Victims Information Bureau of Suffolk County,http://www.vibs.org/,(631) 360-3606,hotline@vibs.org
Crisis Center,Cobleskill,New York,Rape Crisis Sexual Assault Support Services,N/A,(518) 234-4949,N/A
Crisis Center,Corning,New York,Sexual Assault Resource Center,http://www.sarcst.org/,(888) 810-0093,N/A
Crisis Center,Elmsford,New York,Victims’ Assistance Services,http://www.westcop.org/,(855) 827-2255,N/A
Crisis Center,Geneva,New York,"Safe Harbors of the Finger Lakes, Inc",http://www.safeharborsfl.org/,(800) 247-7273,N/A
Crisis Center,Hamdon,New York,"Delaware Opportunities Inc., Safe Against Violence",http://www.delawareopportunities.org/safe-against-violence,(866) 457-7233,N/A
Crisis Center,Harris,New York,RISE -- Rape Intervention Services & Education,http://www.crmcny.org/services/rise, (845) 791-9595,N/A
Crisis Center,Hudson Falls,New York,Sexual Trauma & Recovery Services,http://www.wcstars.org/, (800) 225-7114,N/A
Crisis Center,Ithaca,New York,The Advocacy Center,http://theadvocacycenter.org/,(607) 277-5000,N/A
Crisis Center,Jamestown,New York,The Anew Center,http://www.salvationarmy.com/,(800) 252-8748,N/A
Crisis Center,Johnstown,New York,Fulton Montgomery Rape Crisis Service of Planned Parenthood,N/A,(518) 843-4367,N/A
Crisis Center,Kingston,New York,Ulster County CVAP,N/A,(845) 340-3442,N/A
Crisis Center,"Lockport,",New York,YWCA of Niagra,http://www.ywcaniagara.org/,(716) 433-6716,N/A
Crisis Center,Lowville,New York,Lewis Co. Opportunities’ Domestic Violence & Rape Crisis Dept.,http://www.lewiscountyopportunities.com/,(315) 376-4357,N/A
Crisis Center,Mahopac,New York,Putnam-Northern Westchester Women’s Resource Center,http://www.pnwwrc.org/,(845) 628-2166,N/A
Crisis Center,Middletown,New York,Rape Survivor Advocacy Program- The Mental Health Association of Orange County,http://www.mhaorangeny.com/rapecrisis/index.html,(845) 346-4357,N/A
Crisis Center,Mount Morris,New York,Rape Crisis Service of Planned Parenthood of Livingston County,http://www.pprsr.org/rcs,(800) 527-1757,N/A
Crisis Center,New City,New York,Center for Safety and Change,http://centerforsafetyandchange.org/,(845) 634-3344,info@centersc.org
Crisis Center,New York,New York,Safe Horizon,http://www.safehorizon.org/,(212) 227-3000,N/A
Crisis Center,Newark,New York,"Victim Resource Center of the Finger Lakes, Inc.",http://www.vrcfl.org/,(866) 343-8808,N/A
Crisis Center,Oneida,New York,"Victims of Violence Program/Liberty Resources, Inc.",http://www.victimsofviolence.org/,(315) 366-5000,N/A
Crisis Center,Oswego,New York,SAFE Rape Crisis Program,http://www.oco.org/,(315) 342-1600,HumanResources@oco.org
Crisis Center,Otsego,New York,Violence Intervention Program,http://www.ofoinc.org/,(607) 432-4855,N/A
Crisis Center,Penn Yan,New York,"Safe Harbors of the Finger Lakes, Inc",http://www.safeharborsfl.org/,(315) 536-2897,N/A
Crisis Center,Poughkeepsie,New York,Family Services,http://familyservicesny.org/,(845) 452-7272,N/A
Crisis Center,Rochester,New York,Rape Crisis Service of Planned Parenthood of Monroe County,http://www.pprsr.org/rcs,(585) 546-2777,N/A
Crisis Center,"Saratoga Springs,",New York,Domestic Violence & Rape Crisis Services of Saratoga County,http://www.dbrcsaratoga.org/,(518) 584-8188,N/A
Crisis Center,"Schenectady,",New York,Sexual Assault Support Services,N/A,(866) 307-4086,N/A
Crisis Center,Syracuse,New York,Vera House,http://www.verahouse.org/, (315) 422-7273,info@verahouse.org
Crisis Center,Troy,New York,Sexual Assault and Crime Victims Assistance Program for Rensselaer County,http://www.nehealth.com/sacc,(518) 271-3257,N/A
Crisis Center,Utica,New York,YWCA of the Mohawk Valley,http://www.ywcamv.org/,(315) 797-7740,N/A
Crisis Center,Warsaw,New York,Rape Crisis Service of Planned Parenthood of Wyoming County,http://pprsr.org/rapecrisis,(800) 527-1757,N/A
Crisis Center,Watertown,New York,"Victims Assistance Center of Jefferson County, Inc.",http://www.vacjc.com/,(315) 782-1855,N/A
Crisis Center,Ahoskie,North Carolina,Roanoke Chowan Safe,http://roanokechowansafe.webs.com,(252) 332-1933,NA
Crisis Center,Asheboro,North Carolina,Randolph Count Family Crisis Center,http://business.asheboro.com/rcfcc,(336) 629-4159,NA
Crisis Center,Asheville,North Carolina,"Our Voice, Inc.",http://www.ourvoicenc.org/,(828) 255-7576,NA
Crisis Center,Boone,North Carolina,"Oasis, Inc.",http://www.oasisinc.org/,(828) 262-5035,outreach@oasisinc.org 
Crisis Center,Brevard,North Carolina,"SAFE, Inc. of Transylvania County",http://www.safebrevard.com/,(828) 885-7233,safead@live.com
Crisis Center,Bryson City,North Carolina,"Swain/Qualla SAFE, Inc.",NA,(828) 488-6809,NA
Crisis Center,Burgaw,North Carolina,"Safe Haven of Pender, Inc.",http://www.safehavenofpender.com/,(910) 259-8989,shopinc1@eastnc.twcbc.com
Crisis Center,Burlington,North Carolina,CROSSROADS: Sexual Assault Response & Resource Center,http://www.crossroadscares.org/,(336) 228-0360,crossroads@CrossroadsCares.org
Crisis Center,Carthage,North Carolina,Friend to Friend,http://www.moorefriends.org/,(910) 947-3333,support@moorefriends.org
Crisis Center,Chapel Hill,North Carolina,Orange County Rape Crisis Center,http://www.ocrcc.org/,(866) 935-4783,info@ocrcc.org
Crisis Center,Charlotte,North Carolina,Safe Alliance,http://www.safealliance.org/,(704) 721-0110,info@safealliance.org
Crisis Center,Clinton,North Carolina,"U Care, Inc.",http://www.ucaredv.com/,(910) 596-0931,NA
Crisis Center,Concord,North Carolina,Safe Alliance,http://www.safealliance.org/,(704) 721-0110,info@safealliance.org
Crisis Center,Conover,North Carolina,"Rape Crisis Center of Catawba County, Inc.",http://www.rapecrisiscenter.com/,(828) 322-6011,NA
Crisis Center,Durham,North Carolina,Durham Crisis Response Center,http://www.durhamcrisisresponse.org/,(919) 403-6562,crisisline@durhamcrisisresponse.org
Crisis Center,Elizabeth City,North Carolina,Albemarle Hopeline,http://www.albemarlehopeline.org/,(252) 338-3011,NA
Crisis Center,Fayetteville,North Carolina,Rape Crisis Volunteers of Cumberland County,http://www.rapecrisisonline.org/,(910) 485-7273,administrator@rapecrisisonline.org
Crisis Center,Franklin,North Carolina,Reach of Macon also Serving Jackson County,http://www.reachofmaconcounty.org/,(828) 586-8969,reach@reachofmaconcounty.org
Crisis Center,Gastonia,North Carolina,AVID of Gaston County,http://fsitricounty.org/,(704) 864-0060,NA
Crisis Center,Greensboro,North Carolina,Family Service of the Piedmont,http://familyservice-piedmont.org/,(800) 656-4673,information@familyservice-piedmont.org
Crisis Center,Greenville,North Carolina,"REAL Crisis Intervention, Inc",http://www.realcrisis.org/,(252) 758-4357,realcrisis@embarqmail.com
Crisis Center,Hayesville,North Carolina,Reach of Clay County,http://www.reachofclaycounty.org,(828) 389-0797,NA
Crisis Center,Hendersonville,North Carolina,"The Healing Place, Inc.",http://www.thehealingplace.info/,(828) 692-3931,NA
Crisis Center,Jacksonville,North Carolina,"Onslow Womens’ Center, Inc.",http://www.onslowwc.org/,(910) 347-4000,NA
Crisis Center,Laurinburg,North Carolina,Domestic Violence & Rape Crisis Center of Scotland County,http://www.dvrcc.org/,(910) 276-6268,Info@dvrcc.org
Crisis Center,Lenoire,North Carolina,Shelter Home of Caldwell County,http://www.shelterhomecc.org/,(828) 758-0888,director@shelterhomecc.org
Crisis Center,Lexington,North Carolina,"Family Services of Davidson County, Inc.",http://fsdc.org,(336) 243-1934,NA
Crisis Center,Lillington,North Carolina,"S.A.F.E. of Harnett Co., Inc.",http://www.safeofhc.org/,(910) 893-7233,NA
Crisis Center,Lincolnton,North Carolina,AVID of Lincoln County,http://fsitricounty.org/,(704) 864-0060,NA
Crisis Center,Lumberton,North Carolina,Rape Crisis Center of Robeson County,http://rapecrisiscenterrobesoncounty.com/,(910) 739-6278,NA
Crisis Center,Manteo,North Carolina,Hotline - Crisis Intervention Center,http://www.obhotline.org/,(252) 473-3366,NA
Crisis Center,Mocksville,North Carolina,Davie Domestic Violence Services and Rape Crisis Center,http://www.daviecountync.gov/,(336) 751-4357,NA
Crisis Center,Monroe,North Carolina,Safe Alliance,http://www.safealliance.org/,(704) 721-0110,info@safealliance.org
Crisis Center,Morehead City,North Carolina,Carteret County Rape Crisis Program,NA,(252) 725-4040,NA
Crisis Center,Morganton,North Carolina,"Options, Inc.",http://www.optionsburkecounty.org/,(828) 438-9444,NA
Crisis Center,Murphy,North Carolina,Reach of Cherokee,http://www.reachofcherokeecounty.org/, (828) 837-8064,NA
Crisis Center,,North Carolina,Interact,http://www.interactofwake.org/,(866) 291-0855,NA
Crisis Center,Roanoke Rapids,North Carolina,"Hannah’s Place, Inc./Roanoke Valley Rape Crisis",NA,(252) 541-2064,hannahsplacenc@gmail.com
Crisis Center,Robinsville,North Carolina,Hope For Family,NA,(828) 479-4332,NA
Crisis Center,Rocky Mount,North Carolina,My Sister’s House,http://www.mysistershousenc.org,(252) 459-3094,msh05@embarqmail.com
Crisis Center,Sanford,North Carolina,"HAVEN in Lee County, Inc.",http://havenlee.org/, (919) 774-8923,NA
Crisis Center,Shallotte,North Carolina,The Rape Crisis Center - Brunswick of Coastal Horizons Center Inc.,http://www.coastalhorizons.org/,(910) 754-7949,NA
Crisis Center,Shelby,North Carolina,"Abuse Prevention Council of Cleveland County, Inc.",http://www.apcouncil.wordpress.com/,(704) 481-0043,NA
Crisis Center,Smithfield,North Carolina,"Harbor, Inc",http://www.harborshelter.org/,(919) 631-5478,NA
Crisis Center,Sparta,North Carolina,DANA (Domestic Abuse is not Acceptable),http://www.danaservices.com/,(866) 261-3262,dana@danaservices.com
Crisis Center,Spruce Pine,North Carolina,Mitchell County SafePlace,http://www.mitchellcountysafeplace.com/, (828) 765-4044,NA
Crisis Center,Troy,North Carolina,Crisis Council,NA,(910) 572-3747,NA
Crisis Center,Wadesboro,North Carolina,Anson County Domestic Violence & Sexual Assault Coalition,http://acdvc.com/,(704) 690-0362,NA
Crisis Center,Warsaw,North Carolina,"Sarah’s Refuge, Inc.",http://www.sarahsrefuge.com/,(888) 400-0243,NA
Crisis Center,Waynesville,North Carolina,REACH of Haywood County,http://www.reachofhaywood.com/,(828) 456-7898,NA
Crisis Center,"Wentworth,",North Carolina,"Help, Incorporated: Center Against Violence",http://www.helpinc-centeragainstviolence.org/,(336) 342-3332,lmyers@co.rockingham.nc.us
Crisis Center,Whiteville,North Carolina,"Families First, Inc.",http://www.familiesfirstnc.org/,(910) 641-0444,NA
Crisis Center,Wilkesboro,North Carolina,"SAFE, Inc.",http://www.safewilkes.org/,(336) 838-7233,NA
Crisis Center,Wilmington,North Carolina,"Rape Crisis Center of Coastal Horizons Center, Inc.",http://www.coastalhorizons.org/,(910) 392-7460,NA
Crisis Center,Winston Salem,North Carolina,"Family Services, Inc.",http://www.fsifamily.org/,(336) 723-8125,info@fsifamily.org
Crisis Center,Beulah,North Dakota,Mercer County Women’s Action & Resource Center,http://mercerwarc.org/,(701) 873-2274,NA
Crisis Center,Bismarck,North Dakota,Abused Adult Resource Center,http://abusedadultresourcecenter.com/,(866) 341-7009,aarc@btinet.net
Crisis Center,Dickinson ,North Dakota,Domestic Violence & Rape Crisis Center,http://www.dvrcrisiscenter.org/,(888) 225-4506,dvrcc@ndsupernet.com
Crisis Center,Ellendale,North Dakota,Kedish House,NA,(877) 349-4729,NA
Crisis Center,Fargo,North Dakota,Rape & Abuse Crisis Center of Fargo ND & Moorhead MN,http://www.raccfm.com/,(800) 344-7273,info@raccfm.com
Crisis Center,Fort Totten,North Dakota,Spirit Lake Victim Assistance Program,NA,(866) 723-3032,NA
Crisis Center,Grafton,North Dakota,"Domestic Violence & Abuse Center, Inc.",http://dvacnd.org/,(866) 435-7490,NA
Crisis Center,Grand Forks,North Dakota,Community Violence Intervention Center,http://www.cviconline.org/,(866) 746-8900,embracepeace@cviconline.org
Crisis Center,Jamestown,North Dakota,Safe Shelter,NA,(888) 353-7233,NA
Crisis Center,Lisbon,North Dakota,Abuse Resource Network,NA,(701) 683-5061,NA
Crisis Center,Mandan,North Dakota,Pretty Bird Woman House,http://prettybirdwoman.com/,(605) 823-7233,NA
Crisis Center,Minot,North Dakota,"Domestic Violence Crisis Center, Inc.",http://www.minot.com/~dvcc/, (800) 398-1098,NA
Crisis Center,Stanley,North Dakota,Domestic Violence Program NW ND,NA,(800) 273-8232,NA
Crisis Center,Valley City,North Dakota,"Abused Persons Outreach Center, Inc.",NA,(866) 845-0072,NA
Crisis Center,Wahpeton,North Dakota,Three Rivers Crisis Center,NA,(800) 627-3659,NA
Crisis Center,Washburn,North Dakota,McLean Family Resource Center,http://mfrcnd.org/,(800) 651-8643,NA
Crisis Center,Williston,North Dakota,Family Crisis Shelter,http://www.familycrisisshelternd.org/,(701) 770-5180,lana.fcs@midconetwork.com
Crisis Center,Akron,Ohio,Rape Crisis Center of Medina and Summit Counties,http://www.rccmsc.org/,(877) 906-7273,NA
Crisis Center,Ashland,Ohio,Rape Crisis Domestic Violence Safe Haven,http://www.appleseedmentalhealth.com/safe-haven,(800) 656-4673,NA
Crisis Center,Athens,Ohio,Ohio University Survivors Advocacy Program,http://www.ohio.edu/womenscenter/advocacy, (740) 597-7233,NA
Crisis Center,Batavia,Ohio,YWCA House of Peace,http://www.ywcacincinatti.org/,(800) 644-4460,NA
Crisis Center,"Bowling Green,",Ohio,SAAFE Program,http://www.behavioralconnections.org/,(419) 352-1545,NA
Crisis Center,Cambridge,Ohio,Haven of Hope,NA,(800) 304-4673,NA
Crisis Center,Canton,Ohio,American Red Cross Rape Crisis Services,http://www.stark.redcross.org/,(330) 452-1111,NA
Crisis Center,Cincinnati,Ohio,Women Helping Women Hamilton County,http://womenhelpingwomen.org/, (513) 381-5610,whwinfo@womenhelpingwomen.org
Crisis Center,Cleveland,Ohio,Cleveland Rape Crisis Center,http://www.clevelandrapecrisis.org/,(216) 619-6192,info@clevelandrcc.org
Crisis Center,Cleveland,Ohio,Cleveland Rape Crisis Center,http://www.clevelandrapecrisis.org/,(216) 619-6194,info@clevelandrcc.org
Crisis Center,Columbus,Ohio,Sexual Assault Response Network of Central Ohio,https://www.ohiohealth.com/sexualassaultresponsenetwork/,(614) 267-7020,NA
Crisis Center,Delaware,Ohio,"HelpLine of Delaware and Morrow Counties, Inc.",http://www.helplinedelmor.org/,(800) 684-2324,NA
Crisis Center,Findlay,Ohio,Open Arms Domestic Violence and Rape Crisis Services,http://www.openarmsfindlay.com/,(419) 422-4766,NA
Crisis Center,Jackson ,Ohio,Community Assault Prevention Services,NA,(800) 809-6111,NA
Crisis Center,Kent,Ohio,Townhall II,http://www.townhall2.com/,(866) 449-8518,info@townhall2.com
Crisis Center,Lebanon,Ohio,Abuse & Rape Crisis Shelter of Warren County,http://www.arcshelter.com/,(888) 860-4084,NA
Crisis Center,Lima,Ohio,Crime Victim Services,http://www.crimevictimservices.org/,(877) 867-7273,victim@crimevictimservices.org
Crisis Center,Lisbon,Ohio,Christina House,http://ccdoy.org/locations/catholic-charities-regional-agency/,(330) 420-0036,NA
Crisis Center,Lorain,Ohio,Lorain County Rape Crisis Center a Program of the Nord Center,http://www.nordcenter.org/,(800) 888-6161,NA
Crisis Center,Mansfield,Ohio,"The Domestic Violence Shelter, Inc.",http://www.thedvshelter.com/, (800) 931-7233,NA
Crisis Center,Marietta ,Ohio,"Sexual Assault Intervention Network/EVE, Inc.",https://www.ohiohealth.com/sexualassaultresponsenetwork/,(614) 267-7020,NA
Crisis Center,Mt. Gilead,Ohio,"HelpLine of Delaware and Morrow Counties, Inc.",http://www.helplinedelmor.org/,(800) 684-2324,helpline@helplinedelmor.org
Crisis Center,Mt. Vernon,Ohio,New Directions,http://www.newdirectionsshelter.org/,(740) 397-4357,info@newdirectionsshelter.org
Crisis Center,New Philadelphia,Ohio,"Compass, Inc.",http://www.compassrapecrisis.org/,(330) 339-1427,NA
Crisis Center,Ottawa,Ohio,Crime Victim Services,http://www.crimevictimservices.org/, (877) 274-7471,NA
Crisis Center,Oxford,Ohio,Women Helping Women Butler County,http://womenhelpingwomen.org/,(877) 889-5610,whwinfo@womenhelpingwomen.org
Crisis Center,Painesville,Ohio,Lake County Victim Assistance Program,http://www.lakecountyohio.org/,(800) 899-5253,NA
Crisis Center,Springfield,Ohio,Project Woman,http://www.projectwomanohio.org/,(800) 634-9893,NA
Crisis Center,St. Clairsville,Ohio,"Tri-County Help Center, Inc.",NA,(800) 695-1639,NA
Crisis Center,Toledo,Ohio,YWCA H.O.P.E. Center,http://www.ywcanwo.org,(866) 557-7273,NA
Crisis Center,Warren,Ohio,Rape Crisis Team of Trumbull County,NA,(330) 393-1565,NA
Crisis Center,Wintersville,Ohio,"American Red Cross, Jefferson County Chapter",http://www.redcross.org/wintersville,(740) 512-6092,NA
Crisis Center,Wooster,Ohio,"Every Woman’s House, Inc.",http://www.everywomanshouse.org/,(800) 686-1122,NA
Crisis Center,Youngstown,Ohio,Rape Crisis and Counseling Center of Mahoning County of the Compass Family and Community Services,http://www.compassfamily.org/,(330) 782-3936,NA
Crisis Center,Ada,Oklahoma,Family Crisis Center,NA,(580) 436-3504,NA
Crisis Center,Altus ,Oklahoma,ACMI House,http://www.socag.org/programs/acmi-house,(800) 466-3805,Holly.ACMI@Socag.Org
Crisis Center,Ardmore,Oklahoma,"Family Shelter of Southern Oklahoma for Victims of Domestic Violence, Inc.",http://www.thefamilyshelter.com/,(580) 226-6424,NA
Crisis Center,Bartlesville,Oklahoma,Family Crisis & Counseling Center,http://www.familycrisiscenter.com/,(918) 336-1188,NA
Crisis Center,Chickasha,Oklahoma,Women’s Service & Family Resource Center,NA,(800) 734-4117,NA
Crisis Center,Claremore,Oklahoma,"Safenet Services, Inc.",http://www.safenetservices.org/,(888) 372-9400,info@safenetservices.org 
Crisis Center,Clinton,Oklahoma,Action Associates,NA,(580) 323-2604,NA
Crisis Center,Duncan,Oklahoma,Women’s Haven,NA,(877) 970-4357,NA
Crisis Center,Durant,Oklahoma,Crisis Control Center,http://www.silencehidesilence.org/,(580) 924-3030,NA
Crisis Center,Enid,Oklahoma,YWCA Crisis Center,http://www.ywcaenid.com/,(800) 966-7644,NA
Crisis Center,Idabel,Oklahoma,SOS for Families,NA,(888) 286-3369,NA
Crisis Center,Lawton,Oklahoma,New Directions,http://www.mariedetty.com/,(580) 357-2500,NA
Crisis Center,Miami,Oklahoma,Community Crisis Center,http://getmeout.org/,(800) 400-0883,NA
Crisis Center,Muskogee,Oklahoma,WISH,NA, (918) 682-7878,NA
Crisis Center,Norman,Oklahoma,Women’s Resource Center,http://www.wrcnorman.com/,(405) 701-5660,wrc@wrcweb.net
Crisis Center,Oklahoma City,Oklahoma,YWCA Crisis Intervention Services,http://www.ywcaokc.org/,(800) 522-7233,NA
Crisis Center,Okmulgee,Oklahoma,Okmulgee Safehouse,http://www.casasafehouse.org/,(877) 756-2545,services@casasafehouse.org
Crisis Center,Ponca City,Oklahoma,Domestic Violence Program Of North Central Oklahoma,http://www.dvpnco.org/,(800) 799-SAFE,NA
Crisis Center,Poteau,Oklahoma,Women’s Crisis Center of LeFlore County,NA,(800) 230-9799,NA
Crisis Center,Seminole,Oklahoma,Family Resource Center,http://www.familyrc.org/,(800) 373-5608,laura@familyrc.org
Crisis Center,Shawnee,Oklahoma,Project Safe,http://www.projectsafeok.com/,(800) 821-9953,NA
Crisis Center,Stigler,Oklahoma,KIBOIS Women’s Shelter,http://www.kibois.org/,(877) 810-5637,NA
Crisis Center,Stillwater,Oklahoma,Wings of Hope - Stillwater Domestic Violence Services,http://www.sdvs.org/,(800) 624-3020,NA
Crisis Center,Tahlequah,Oklahoma,Help in Crisis,http://www.helpincrisisinc.org/,(800) 300-5321,NA
Crisis Center,Tulsa,Oklahoma,Domestic Violence Intervention Services/Call Rape,http://www.dvis.org/,(918) 743-5763,NA
Crisis Center,Astoria,Oregon,Clatsop County Women's Resource Center,http://www.ccwrc.net/,(877) 770-5735,NA
Crisis Center,Baker City,Oregon,"May Day, Inc. Safe Home Network",http://www.endviolence.org/,(888) 213-4134,endviolenceproject@gmail.com
Crisis Center,Beaverton,Oregon,Sexual Assault Resource Center,http://sarcoregon.org/,(888) 640-5311,volunteer@sarcoregon.org
Crisis Center,Bend,Oregon,Saving Grace,http://www.saving-grace.org/,(866) 504-8992,NA
Crisis Center,Burns,Oregon,HHOPE,NA,(541) 573-7176,NA
Crisis Center,Christmas Valley,Oregon,New Beginnings Intervention Center,NA,(800) 850-4838,NA
Crisis Center,Coos Bay,Oregon,Women's Safety and Resource Center,http://www.womensafety.org/,(888) 793-5612,NA
Crisis Center,Corvallis,Oregon,Center Against Rape & Domestic Violence (CARDV),http://www.cardv.org/, (800) 927-0197,http://cardv.org/email.php?email=cardv
Crisis Center,Dallas,Oregon,Sable House,http://www.sablehouse.org/,(866) 305-3030,NA
Crisis Center,Eugene,Oregon,Sexual Assault Support Service,http://www.sass-lane.org/,(800) 788-4727,NA
Crisis Center,Florence,Oregon,Siuslaw Outreach Services,http://www.florencesos.org/,(541) 997-4444,marie@florencesos.org
Crisis Center,Grants Pass,Oregon,Women’s Crisis Support Team,http://www.wcstjoco.org/,(800) 750-9278,NA
Crisis Center,Hood River,Oregon,"Helping Hands Against Violence, Inc.",http://helpinghandsoregon.com/,(541) 386-6603,steph@helpinghandsoregon.comt
Crisis Center,La Grande,Oregon,Shelter From the Storm,NA,(541) 963-9261,NA
Crisis Center,Lakeview,Oregon,Lake County Crisis Center,http://lakecountycrisiscenter.org/,(800) 338-7590,lccrisiscenter@gmail.com
Crisis Center,Medford,Oregon,Community Works,http://www.community-works.org/,(855) 216-2111,Info@community-works.org
Crisis Center,Newport,Oregon,My Sister's Place,http://www.mysistersplace.us/,(800) 841-8325,NA
Crisis Center,Ontario,Oregon,Project DOVE,http://www.projectdoveor.org/,(541) 889-2000,dove@projectdoveor.org
Crisis Center,Oregon City,Oregon,Clackamas Women’s Services,http://www.cwsor.org/,(888) 654-2288,info@cwsor.org
Crisis Center,Pendleton,Oregon,Domestic Violence Services,http://www.domesticviolenceservice-or.org/,(800) 833-1161,NA
Crisis Center,Portland,Oregon,Portland Women’s Crisis Line,http://www.pwcl.org/,(888) 235-5333,NA
Crisis Center,Roseburg,Oregon,Battered Persons’ Advocacy,http://www.peaceathome.com/,(800) 464-6543,NA
Crisis Center,Tillamook,Oregon,Tillamook County Women’s Resource Center,http://www.tcwrc.net/,(800) 992-1679,NA
Crisis Center,Allentown,Pennsylvania,Crime Victims’ Council of the Lehigh Valley,http://www.cvclv.org/,(610) 437-6611,NA
Crisis Center,Altoona,Pennsylvania,"Family Services, Inc.",http://www.endviolence.org/,(888) 213-4134,endviolenceproject@gmail.com
Crisis Center,Beaver,Pennsylvania,Women’s Center of Beaver County,http://www.womenscenterbc.org/,(724) 775-0131,annex@womenscenterbc.org
Crisis Center,Bloomsburg,Pennsylvania,Women’s Center,http://www.thewomenscenterinc.org/,(570) 784-6631,NA
Crisis Center,Bradford,Pennsylvania,YWCA -- Victims’ Resource Center,http://ywcabradford.org/,(888) 822-6325,NA
Crisis Center,Butler,Pennsylvania,Victim Outreach Intervention Center,http://www.voiceforvictims.com/,(800) 400-8551,voice@voiceforvictims.com
Crisis Center,Carlisle,Pennsylvania,Sexual Assault/Rape Crisis Services of Cumberland County, http://www.ywcacarlisle.org,(717) 258-1143,NA
Crisis Center,Chambersburg,Pennsylvania,"Women in Need, Inc.",http://www.winservices.org/,(717) 264-4444,NA
Crisis Center,Coudersport,Pennsylvania,A Way Out,NA,(877) 334-3136,NA
Crisis Center,Delaware Water Gap,Pennsylvania,"Women’s Resources of Monroe County, Inc.",http://www.wrmonroe.org/,(800) 799-7233,NA
Crisis Center,Erie ,Pennsylvania,"Crime Victim Center of Erie County, Inc.",http://www.cvcerie.org/,(800) 352-7273,admin@cvcerie.org
Crisis Center,Gettysburg,Pennsylvania,"Survivors, Inc.",http://www.enddvsa.org,(800) 787-8106,NA
Crisis Center,Greensburg,Pennsylvania,Blackburn Center Against Domestic & Sexual Violence,http://www.blackburncenter.org/,(888) 832-2272,NA
Crisis Center,Harrisburg,Pennsylvania,YWCA Rape Crisis Services,http://www.ywcahbg.org/,(800) 654-1211,NA
Crisis Center,Honesdale,Pennsylvania,Victims Intervention Program,http://www.vipempowers.org/,(800) 698-4847,NA
Crisis Center,Jamison,Pennsylvania,Network of Victim Assistance,http://www.novabucks.org/,(800) 675-6900,NA
Crisis Center,Johnstown,Pennsylvania,"Victim Services, Inc.",http://www.victimservicesinc.org/,(800) 755-1983,NA
Crisis Center,Kittanning,Pennsylvania,Helping All Victims in Need,http://www.havinpa.org/,(800) 841-8881,NA
Crisis Center,Lancaster,Pennsylvania,Sexual Assault Prevention and Counseling Center,http://www.ywcalancaster.org/,(717) 392-7273,NA
Crisis Center,Laporte,Pennsylvania,Sullivan County Victim Services,http://sullivancountyvictimservices.org/,(800) 894-3706,NA
Crisis Center,Lebanon,Pennsylvania,Sexual Assault Resource Counseling Center of Lebanon and Schuylkill County,http://www.sarcclebanon.org/,(717) 272-5308,NA
Crisis Center,Lewisburg,Pennsylvania,Transitions,http://www.transitionsofpa.org/,(800) 850-7948,susan_m@transitionsofpa.org 
Crisis Center,Lewistown,Pennsylvania,"The Abuse Network, Inc.",http://www.abusenetwork.org/,(888) 810-2444,NA
Crisis Center,Lock Haven,Pennsylvania,Clinton County Women’s Center,http://www.ccwcsafe.org/,(570) 748-9509,NA
Crisis Center,Meadville,Pennsylvania,"Women’s Services, Inc.",http://www.womensservicesinc.org/,NA,NA
Crisis Center,Milford,Pennsylvania,"Safe Haven of Pike County, Inc.",http://www.shopc.org/,(877) 296-7878,empowerment@shopc.org
Crisis Center,New Castle,Pennsylvania,The Crisis Shelter of Lawrence County,http://www.crisisshelter.org/,(724) 652-9036,NA
Crisis Center,Norristown,Pennsylvania,"Victim Services Center of Montgomery County, Inc.",http://www.victimservicescenter.org/,(888) 521-0983,NA
Crisis Center,Oil City,Pennsylvania,PPC Violence Free Network,http://www.fscas.org/ppc-vfn.htm,(800) 243-4944,NA
Crisis Center,Philadelphia,Pennsylvania,Women Organized Against Rape,http://www.woar.org/,(215) 985-3333,info@woar.org
Crisis Center,Pittsburgh,Pennsylvania,Pittsburgh Action Against Rape,http://www.paar.net/,(866) 363-7273,NA
Crisis Center,Pittsburgh,Pennsylvania,Center for Victims,http://www.centerforvictims.org/,(866) 644-2882,NA
Crisis Center,Reading,Pennsylvania,Berks Women in Crisis,http://www.berkswomenincrisis.org/,(610) 372-9540,NA
Crisis Center,Ridgway,Pennsylvania,"CAPSEA, Inc.",http://www.pavisnet.com/capsea,(814) 772-1227,NA
Crisis Center,Scranton,Pennsylvania,Women’s Resource Center,http://www.wrcnepa.org/,(800) 257-5765,NA
Crisis Center,Sharon,Pennsylvania,AWARE Inc.,http://www.merceraware.org/,(888) 981-1457,info@merceraware.org
Crisis Center,State College,Pennsylvania,Centre County Women’s Resource Center,http://ccwrc.org/, (877) 234-5050,NA
Crisis Center,Tunkhannock,Pennsylvania,Victims Resource Center,http://www.vrcnepa.org/,(866) 206-9050,NA
Crisis Center,Washington,Pennsylvania,The C.A.R.E. Center— STTARS Program,NA,(888) 480-7283,NA
Crisis Center,Wellsboro,Pennsylvania,HAVEN of Tioga County,http://www.havenoftiogacounty.org/,(570) 724-3554,NA
Crisis Center,West Chester,Pennsylvania,"Crime Victims Center of Chester County, Inc.",http://www.cvcofcc.org/,(610) 692-7273,contactus@cvcofcc.org 
Crisis Center,Wilkes-Barre,Pennsylvania,Victims Resource Center,http://www.vrcnepa.org/,(866) 206-9050,NA
Crisis Center,Williamsport,Pennsylvania,YWCA -- Wise Options,http://www.ywcawilliamsport.org/,(800) 326-8483,NA
Crisis Center,York,Pennsylvania,Victim Assistance Center,http://ywcayork.org/,(800) 422-3204,NA
Crisis Center,Providence,Rhode Island,Day One,http://www.dayoneri.org/,(800) 494-8100,NA
Crisis Center,Aiken,South Carolina,Cumbee Center to Assist Abused Persons,http://www.cumbeecenter.org/,(803) 649-0480,NA
Crisis Center,Anderson,South Carolina,Foothills Alliance,http://www.foothillsalliance.org/,(800) 585-8952,NA
Crisis Center,Beaufort,South Carolina,Hope Haven of the Lowcountry,http://www.hopehavenlc.org/,(800) 637-7273,NA
Crisis Center,Camden,South Carolina,Family Resource Center,http://www.frccounseling.com/,(800) 585-4455,NA
Crisis Center,Charleston,South Carolina,People Against Rape,http://www.peopleagainstrape.org/,(800) 241-7273,NA
Crisis Center,Columbia,South Carolina,Sexual Trauma Services of the Midlands,http://www.stsm.org/,(800) 491-7273,stsm@stsm.org
Crisis Center,Easley,South Carolina,Rape Crisis Council,http://www.pickensrcc.org/,(864) 442-5500,NA
Crisis Center,Florence,South Carolina,Pee Dee Coalition Against Domestic & Sexual Assault,http://www.peedeecoalition.org/,(800) 273-1820,NA
Crisis Center,Greenville,South Carolina,Julie Valentine Center,http://www.julievalentinecenter.org/,(864) 467-3633,info@julievalentinecenter.org
Crisis Center,Greenwood ,South Carolina,Beyond Abuse,http://www.beyondabuse.info/,(888) 297-4546,contact@beyondabuse.info
Crisis Center,Lancaster ,South Carolina,Palmetto Citizens Against Sexual Assault,NA,(888) 790-8532,NA
Crisis Center,Myrtle Beach,South Carolina,Rape Crisis Center,http://www.victimtosurvivor.org/,(843) 448-7273,NA
Crisis Center,Orangeburg,South Carolina,CASA/Family Systems,http://casafamilysystems.com/,(800) 298-7288,NA
Crisis Center,Rock Hill ,South Carolina,"Safe Passage, Inc.",http://www.safepassagesc.org/,(800) 659-0977,NA
Crisis Center,Spartanburg,South Carolina,Safe Homes,http://www.shrcc.org/,(800) 273-5066,NA
Crisis Center,Aberdeen,South Dakota,Safe Harbor,http://safeharborsd.org/,(888) 290-2935,safeharbor@safeharborsd.org
Crisis Center,Brookings,South Dakota,Brookings Domestic Abuse Shelter,NA,(888) 643-5400,NA
Crisis Center,Custer,South Dakota,WEAVE,NA,(800) 424-3574,NA
Crisis Center,Eagle Butte,South Dakota,Sacred Heart Women’s Shelter,http://www.shconline.org/,(800) 390-9298,info@shconline.org
Crisis Center,Fort Thompson,South Dakota,"Wiconi Wawokiya, Inc.",NA,(605) 244-7233,NA
Crisis Center,Lemmon,South Dakota,"CAVA (Communities Against Violence & Abuse, Inc.)",http://wiconiwawokiya.weebly.com/,(800) 723-3039,wiconi@midstatesd.net
Crisis Center,McLaughlin,South Dakota,Pretty Bird Woman House,NA,(605) 823-7233,NA
Crisis Center,Mobridge,South Dakota,Bridges Against Domestic Violence,NA,(605) 845-2110,NA
Crisis Center,Rapid City,South Dakota,"Working Against Violence, Inc.",http://www.wavi.org/,(888) 716-9284,NA
Crisis Center,Sioux Falls,South Dakota,The Compass Center,http://www.thecompasscenter.org/,(877) 462-7474,NA
Crisis Center,Spearfish,South Dakota,Artemis House,http://www.artemishouse.org/,(800) 999-2348,advocate@artemishouse.org
Crisis Center,Sturgis,South Dakota,Crisis Intervention Shelter Service,NA,(800) 755-8432,NA
Crisis Center,Vermillion,South Dakota,Domestic Violence Safe Option Services,NA,(605) 624-5311,NA
Crisis Center,Athens,Tennessee,"The Hope Center, Inc.",http://www.thehopecenterinc.com/,(423) 745-5289,NA
Crisis Center,Chattanooga,Tennessee,"Partnership for Families, Children, and Adult: Rape Crisis Center",http://www.partnershipfca.com/,(423) 755-2700,info@partnershipfca.com
Crisis Center,"Cleveland,",Tennessee,Family Resource Agency,http://www.fratn.com/,(423) 476-3886,info@fratn.com
Crisis Center,Cookeville,Tennessee,"Genesis House, Inc.",http://www.genesishouseinc.com/,(800) 707-5197,info@genesishouseinc.com
Crisis Center,Crossville,Tennessee,Avalon Center: DV and Sexual Assault Program,http://www.avaloncentertn.org/,(800) 641-3434,tparadis@avaloncentertn.org
Crisis Center,Jackson,Tennessee,Women’s Resource & Rape Assistance Program,http://wraptn.org/,(800) 273-8712,NA
Crisis Center,Knoxville,Tennessee,Sexual Assualt Center of East Tennessee,http://www.mcnabbcenter.org/sacet,(865) 522-7273,NA
Crisis Center,Memphis,Tennessee,Rape Crisis Center,http://www.shelbycountytn.gov/index.aspx?NID=737,(901) 222-4350,NA
Crisis Center,Morristown,Tennessee,"CEASE, Inc.",http://www.lcs.net/cease/,(423) 581-2220,NA
Crisis Center,Murfreesboro,Tennessee,"Domestic Violence Program, Inc. & Sexual Assault Services",http://www.dvpshelter.org/,(615) 494-9262,NA
Crisis Center,Nashville,Tennessee,Sexual Assault Center,http://www.sacenter.org/,(800) 879-1999,NA
Crisis Center,Woodbury,Tennessee,Cannon County S.A.V.E.,http://cannoncountysave.org/,(615) 563-6690,NA
Crisis Center,Abilene,Texas,Regional Victim Crisis Center,http://www.regionalcrime.org/,(325) 677-7895,info@regionalcrime.org
Crisis Center,Alpine,Texas,Family Crisis Center of Big Bend,http://www.familycrisiscenter.homestead.com/,(800) 834-0654,fccbb@sbcglobal.net
Crisis Center,Amarillo,Texas,Family Support Services,http://www.fss-ama.org/,(800) 749-9026,NA
Crisis Center,Angleton,Texas,"Women’s Center of Brazoria County, Inc.",http://www.womenscenterbrazoriacounty.com/,(800) 243-5788,NA
Crisis Center,Austin,Texas,SafePlace,http://www.safeplace.org/,(512) 267-7233,info@SafePlace.org
Crisis Center,Bastrop,Texas,Family Crisis Center,http://www.family-crisis-center.org/,(888) 311-7755,NA
Crisis Center,Bay City ,Texas,The Crisis Center,http://www.crisiscnt.com/,(800) 451-9235,mcwcc@crisiscnt.com
Crisis Center,Beaumont ,Texas,"Rape & Suicide Crisis of Southeast Texas, Inc.",http://www.rapesuicidebeaumont.org/,(800) 793-2273,NA
Crisis Center,Big Spring,Texas,"Victim Services of Big Spring, Texas",http://www.vsofbigspring.com/,(432) 263-3312,NA
Crisis Center,Bonham,Texas,Fannin County Family Crisis Center,http://fccrisiscenter.org/,(903) 583-7000,fcfcc@cableone.net
Crisis Center,Borger,Texas,"Hutchinson County Crisis Center, Inc.",http://borgerhc3.org/,(806) 273-2313,NA
Crisis Center,Brady,Texas,The Haven Family Shelter of McCulloch County,http://www.thehavenfamilyshelter.org/,(325) 597-7644,NA
Crisis Center,Brownsville,Texas,"Friendship of Women, Inc.",http://fowinc.com/,(956) 544-7412,NA
Crisis Center,Bryan,Texas,Sexual Assault Resource Center,http://www.sarcbv.org/,(979) 731-1000,NA
Crisis Center,Carizzo Springs,Texas,"Wintergarden Women’s Shelter, Inc.",http://www.wintergardenwomensshelter.org/,(800) 363-9441,NA
Crisis Center,Cleburne,Texas,Johnson County Family Crisis Center,http://www.familycrisisjc.org/,(800) 848-3206,info@familycrisisjc.org
Crisis Center,Corpus Christi,Texas,Women's Shelter of South Texas,http://www.thewomensshelter.org/,(800) 580-4878,NA
Crisis Center,Dallas,Texas,Victim Intervention Program-Parkland,http://www.parklandhospital.com/phhs/vip-rape-crisis-center.aspx,(214) 590-0430,NA
Crisis Center,Dallas,Texas,Dallas Area Rape Crisis Center,http://dallasrapecrisis.org/,(972) 641-7273,NA
Crisis Center,Denton,Texas,Denton County Friends of the Family,http://www.dcfof.org/,(800) 572-4031,NA
Crisis Center,Dumas,Texas,"Safe Place, Inc.",http://safeplaceinc.org/,(806) 935-2828,NA
Crisis Center,Eastland,Texas,"Eastland County Crisis Center, Inc.",http://www.eastlandcrisis.org/,(888) 686-3222,info@eastlandcrisis.org
Crisis Center,El Paso,Texas,Center Against Family Violence,http://www.cafv.org/,(915) 593-7300,vrueda@cafv.org
Crisis Center,Fort Worth,Texas,Rape Crisis & Victim Services Program,http://www.womenscentertc.org/,(817) 927-2737,NA
Crisis Center,"Gainesville,",Texas,Abigail’s Arms Cooke County Crisis Center,http://www.abigailsarms.org/,(877) 846-4751,NA
Crisis Center,Galveston,Texas,Resource and Crisis Center of Galveston County,http://www.rccgc.org/,(888) 919-7233,info@rccgc.org
Crisis Center,Granbury,Texas,Mission Granbury,http://missiongranbury.org/,(817) 579-6848,NA
Crisis Center,Grand Prairie,Texas,"Brighter Tomorrows, Inc.",http://www.brightertomorrows.net/,(866) 925-7233,NA
Crisis Center,Greenville,Texas,Hunt County Children's Advocacy Center,NA,(903) 454-9999,NA
Crisis Center,Harlingen,Texas,"Family Crisis Center, Inc.",http://www.familycrisisctr.org/,(866) 423-9304,NA
Crisis Center,Hereford,Texas,Deaf Smith County Crisis Center,http://deafsmithcocrisiscenter.org/,(806) 363-6727,dsccc@wtrt.net
Crisis Center,Houston,Texas,Houston Area Women’s Center,http://www.hawc.org/,(800) 256-0661,NA
Crisis Center,Houston,Texas,Bay Area Turning Point,http://www.bayareaturningpoint.org/,(281) 286-2525,NA
Crisis Center,Humble,Texas,FamilyTime Crisis and Counseling Center,http://www.familytimeccc.org/,(281) 446-2615,NA
Crisis Center,Huntsville,Texas,SAAFE House,http://www.saafehouse.org/,(936) 291-3369,NA
Crisis Center,Jacksonville,Texas,Crisis Center of Anderson and Cherokke Counties,http://www.mycrisiscenter.com/,(800) 232-8519,NA
Crisis Center,Katy,Texas,Katy Christian Ministries,http://www.ktcm.org/Sexual_Abuse.htm,(281) 693-7273,NA
Crisis Center,Kerrville,Texas,Hill Country Cares,http://www.hccares.com/,(888) 621-0047,NA
Crisis Center,Kileen,Texas,"Families in Crisis, Inc./ Rape Crisis",http://www.familiesincrisis.net/,(888) 799-7233,NA
Crisis Center,Kountze,Texas,Hardin County Crime Victims’ Assistance Center,NA,(409) 246-4300,NA
Crisis Center,Laredo,Texas,"Serving Children and Adolescents in Need, Inc.",http://scan-inc.org/,(800) 355-7226,info@scan-inc.org
Crisis Center,Longview,Texas,Women’s Center of East Texas,http://www.wc-et.org/,(800) 441-5555,NA
Crisis Center,Lubbock,Texas,Lubbock Rape Crisis Center dba Voice of Hope,http://voiceofhopelubbock.org/,(806) 763-7273,Leslie@voiceofhopelubbock.org
Crisis Center,Lufkin,Texas,Family Crisis Center of East Texas,http://www.familycrisiscenterofeasttexas.com/,(800) 828-7233,NA
Crisis Center,Marble Falls,Texas,Family Crisis Center,http://www.hlfcc.org/,(800) 664-3574,NA
Crisis Center,McAllen,Texas,Women Together/Mujeres Unidas,http://mujeresunidas.org/,(800) 580-4879,NA
Crisis Center,Midland,Texas,Midland Rape Crisis and Children's Advocacy Center,http://www.mrccac.org/,(432) 682-7273,NA
Crisis Center,Mt. Pleasant,Texas,"Shelter Agencies for Families in East Texas, Inc.",http://www.safe-tagency.com/,(888) 801-4357,NA
Crisis Center,New Braunfels,Texas,Crisis Center of Comal County,http://www.ccccnbtx.org/,(800) 434-8013,NA
Crisis Center,Odessa,Texas,The Crisis Center,http://www.odesscrisiscenter.org/,(866) 627-4747,NA
Crisis Center,Pampa,Texas,Tralee Crisis Center,http://www.traleecrisiscenter.com/,(800) 658-2796,NA
Crisis Center,Pasadena,Texas,Bridge Over Troubled Waters,http://tbotw.org/,(713) 473-2801,NA
Crisis Center,Perryton,Texas,Panhandle Crisis Center,http://www.panhandlecrisiscenter.org/,(800) 753-5308,pccpcc@ptsi.net
Crisis Center,Plainview,Texas,Crisis Center of the Plains,NA,(806) 293-7273,NA
Crisis Center,Plano,Texas,The Turning Point,http://www.theturningpoint.org/,(800) 886-7273,NA
Crisis Center,Pleasanton,Texas,Atascosa Family Crisis Center,http://www.atascosafamilycrisis.org/,(830) 569-2001,NA
Crisis Center,Port Lavaca,Texas,The Harbor Children's Alliance and Victims Center,http://www.harboradvocacycenter.org/,(361) 552-4357,theharbored@cableone.net
Crisis Center,Richmond,Texas,Fort Bend County Women’s Center,http://www.fortbendwomenscenter.org/,(888) 427-3650,NA
Crisis Center,Round Rock,Texas,Hope Alliance,http://www.hopealliancetx.org/,(800) 460-7233,NA
Crisis Center,San Angelo,Texas,"Concho Valley Rape Crisis Center, Inc.",http://cv-rcc.org/,(325) 658-8888,NA
Crisis Center,San Antonio,Texas,Rape Crisis Center,http://www.rapecrisis.com/,(210) 349-7273,NA
Crisis Center,San Marcos,Texas,Hays-Caldwell Women’s Center,http://www.hcwc.org/,(512) 396-4357,info@hcwc.org
Crisis Center,Stephenville,Texas,Cross Timbers Family Services,http://www.ctfshelp.org,(866) 934-4357,NA
Crisis Center,Texarkana,Texas,Domestic Violence Prevention,http://www.dvptxk.org/,(903) 793-4357,NA
Crisis Center,The Woodlands,Texas,Montgomery County Women’s Center,http://www.mcwctx.org/,(936) 441-7273,NA
Crisis Center,Tyler,Texas,East Texas Crisis Center,http://www.etcc.org/,(800) 333-0358,NA
Crisis Center,Victoria,Texas,Mid-Coast Family Services,http://www.midcoastfamily.org/,(361) 573-4357,info@midcoastfamily.org
Crisis Center,Waco,Texas,Advocacy Center for Crime Victims & Children,http://www.advocacycntr.org/,(888) 867-7233,NA
Crisis Center,Weatherford,Texas,Freedom House,NA,(817) 596-8922,NA
Crisis Center,Wichita Falls,Texas,First Step,http://firststep.org/,(800) 658-2683,NA
Crisis Center,Brigham City,Utah,The New Hope Crisis Center of Box Elder County,http://www.newhopecrisiscenter.org/,(877) 723-5600,newhopecrisiscenter@gmail.com
Crisis Center,"Cedar City,",Utah,Canyon Creek Women’s Crisis Center,http://www.ccwcc.org/,(435) 867-6149,NA
Crisis Center,Kaysville,Utah,Safe Harbor Crisis Center,http://www.womensdvshelter.org/,(801) 444-9161,dccav@xmission.com
Crisis Center,Logan,Utah,Community Advocates Providing Shelter from Abuse (CAPSA),http://www.capsa.org/,(435) 753-2500,NA
Crisis Center,Moab,Utah,Seekhaven Family Resource Center,http://www.seekhaven.org/,(888) 421-1100,NA
Crisis Center,Ogden,Utah,YCC Rape Recovery Center,NA,(801) 392-7273,NA
Crisis Center,Orem,Utah,"Center for Women & Children in Crisis, Inc.",http://www.cwcic.org/,(801) 356-2511,lloader@cwcic.org
Crisis Center,Park City,Utah,Victim Assistance Program,NA,(435) 615-3850,NA
Crisis Center,Richfield,Utah,New Horizons Crisis Center,http://www.centralutahcrisisintervention.com/,(800) 343-6302,NA
Crisis Center,Saint George,Utah,DOVE Center,http://www.dovecenter.org/,(800) 628-0458,info@dovecenter.org 
Crisis Center,Salt Lake City,Utah,Rape Recovery Center,http://raperecoverycenter.org/,(888) 421-1100,NA
Crisis Center,Vernal,Utah,Vernal Victim Advocacy Program,http://www.vernalcity.org,(435) 789-4250,NA
Crisis Center,Barre,Vermont,Sexual Assault Crisis Team,http://sactvt.org/,(802) 479-5577,NA
Crisis Center,Bennington,Vermont,Project Against Violent Encounters,http://www.ccwcc.org/,(435) 867-6149,NA
Crisis Center,Burlington,Vermont,HOPE Works,http://www.womensdvshelter.org/,(801) 444-9161,dccav@xmission.com
Crisis Center,Hardwick,Vermont,AWARE,NA,(800) 228-7395,NA
Crisis Center,Middlebury,Vermont,WomenSafe,http://www.womensafe.net/,(800) 388-4205,NA
Crisis Center,Morrisville,Vermont,Clarina Howard Nichols Center,http://www.clarina.org/,(802) 888-5256,sfoster@clarina.org
Crisis Center,Newport,Vermont,Umbrella,http://www.umbrellanek.org/,(802) 334-0148,NA
Crisis Center,Springfield,Vermont,WISE,http://www.wiseoftheuppervalley.org/,(866) 348-9473,NA
Crisis Center,St. Albans,Vermont,Voices Against Violence,http://cvoeo.org/,(802) 524-6575,pbehrman@cvoeo.org
Crisis Center,St. Johnsbury,Vermont,Umbrella,http://www.umbrellanek.org/,(802) 748-8645,NA
Crisis Center,Alexandria,Virginia,Alexandria Sexual Assault Center,http://www.alexandriava.gov/SexualViolence,(703) 683-7273,NA
Crisis Center,Arlington,Virginia,Arlington County Violence Intervention Program,http://www.arlingtonva.us/,(703) 228-4848,NA
Crisis Center,Ashland,Virginia,Hanover Safe Place,http://www.hanoversafeplace.com/,(804) 752-2702,director@hanoversafeplace.com
Crisis Center,Blackstone,Virginia,Piedmont Crisis Center,http://madelineshouse.org/,(888) 819-2926,NA
Crisis Center,Bristol,Virginia,The Crisis Center,http://crisiscenterinc.org/,(276) 466-2312,info@crisiscenterinc.org
Crisis Center,"Charlottesville,",Virginia,Sexual Assault Resource Agency,http://www.saracville.org/,(434) 977-7273,NA
Crisis Center,Covington,Virginia,"Safehome Systems, Inc.",http://www.safehomesystems.org/,(877) 393-3672,NA
Crisis Center,Dumfries,Virginia,SAVAS (Sexual Assault Victims Advocacy Service),http://www.actspwc.org/,(703) 368-4141,LLove@actspwc.us
Crisis Center,Fairfax,Virginia,Office For Women & Domestic And Sexual Violence Services,http://www.fairfaxcounty.gov/ofw,(703) 360-7273,NA
Crisis Center,Fredericksburg,Virginia,Rappahannock Council Against Sexual Assault,http://www.rcasa.org/,(540) 371-1666,NA
Crisis Center,Gloucester,Virginia,"Laurel Shelter, Inc.",http://www.laurelshelterinc.org/,(888) 289-2102,NA
Crisis Center,Harrisonburg,Virginia,Collins Center,http://www.thecollinscenter.org/,(540) 434-2272,info@thecollinscenter.org
Crisis Center,Hopewell,Virginia,The James House,http://www.thejameshouse.org/,(804) 458-2840,NA
Crisis Center,Lebanon,Virginia,People Incorporated of Virginia,http://peopleinc.net/,(877) 697-9444,info@peopleinc.net
Crisis Center,Leesburg,Virginia,LAWS Sexual Assault Services,http://www.lcsj.org/,(703) 777-6552,NA
Crisis Center,Lexington,Virginia,Project Horizon,http://projecthorizon.org/,(540) 463-2594,NA
Crisis Center,Luray,Virginia,Choices,http://www.choicesofpagecounty.org/,(540) 743-4414,debbiedart@choicesofpagecounty.org
Crisis Center,Lynchburg,Virginia,YWCA Sexual Assault Response Program,http://www.lynchburgywca.org,(888) 947-7273,NA
Crisis Center,Martinsville,Virginia,"Citizens Against Family Violence, Inc.",http://www.cafv.info/,(276) 632-8701,NA
Crisis Center,Newport News,Virginia,Center for Sexual Assault Survivors,http://www.visitthecenter.org/,(757) 236-5260,sgray@visitthecenter.org
Crisis Center,Norfolk,Virginia,Response Sexual Assault Support Services of the YWCA,http://www.ywca-shr.org/,(757) 226-9922,NA
Crisis Center,Norton,Virginia,"FCSS, Inc.",http://www.family-crisis.com/,(877) 348-3416,NA
Crisis Center,Radford,Virginia,Women’s Resource Center of the New River Valley,http://www.wrcnrv.org/,(800) 788-1123,NA
Crisis Center,Richmond,Virginia,YWCA of Richmond,http://ywcarichmond.org/,(804) 643-0888,NA
Crisis Center,Roanoke,Virginia,"SARA, Inc.",http://www.sararoanoke.org/,(540) 981-9352,NA
Crisis Center,Staunton,Virginia,New Directions,http://www.newdirectionscenter.org,(800) 564-8236,NA
Crisis Center,Warsaw,Virginia,"The Haven Shelter & Services, Inc.",http://www.havenshelter.org/,(800) 224-2836,haven@sylvaninfo.net
Crisis Center,Williamsburg,Virginia,Avalon: A Center for Women and Children,http://www.avaloncenter.org/,(757) 258-5051,NA
Crisis Center,Winchester,Virginia,"The Laurel Center, formerly The Shelter for Abused Women",http://www.thelaurelcenter.org/,(866) 670-2942,NA
Crisis Center,Woodstock,Virginia,Response,http://www.responseva.org/,(866) 459-5161,NA
Crisis Center,Aberdeen,Washington,Beyond Survival,http://www.ghbeyondsurvival.com/,(888) 626-2640,director@ghbeyondsurvival.com  
Crisis Center,Bellingham,Washington,Domestic Violence and Sexual Assault Services of Whatcom County,http://www.dvsas.org/,(877) 715-1563,NA
Crisis Center,Chehalis,Washington,Human Response Network,http://www.hrnlc.org/,(800) 244-7414,info@hrnlc.org
Crisis Center,Colville,Washington,Rural Resources/Family Support Center,http://www.ruralresources.org/,(509) 684-6139,NA
Crisis Center,Davenport,Washington,Family Resource Center of Lincoln County,NA,(800) 932-0932,NA
Crisis Center,Eastsound,Washington,DVSA Services of the San Juan Islands,http://www.dvsassanjuans.org,(360) 376-1234,NA
Crisis Center,Ellensburg,Washington,ASPEN,NA,(866) 925-9384,NA
Crisis Center,Everett,Washington,Providence Intervention Center for Assault and Abuse,http://www.providence.org/everett,(425) 252-4800,NA
Crisis Center,Friday Harbor,Washington,DVSA Services of the San Juan Islands,http://www.dvsassanjuans.org,(360) 378-2345,NA
Crisis Center,Kennewick,Washington,"Support, Advocacy & Resource Center",http://supportadvocacyresourcecenter.org/,(888) 846-7273,NA
Crisis Center,Moses Lake,Washington,New Hope DV & SA Service,NA,(888) 560-6027,NA
Crisis Center,Newport,Washington,Pend Oreille Crime Victim Services,http://www.pofcn.org/,(800) 548-3133,advocate@pofcn.org
Crisis Center,Olympia,Washington,SafePlace,http://safeplaceolympia.org/,(360) 754-6300,NA
Crisis Center,Port Townsend,Washington,Dove House Advocacy Services,http://www.dovehousejc.org/,(360) 385-5291,NA
Crisis Center,Pullman,Washington,Alternative to Violence of the Palouse,http://www.atvp.org/, (877) 334-2887,home@atvp.org
Crisis Center,Renton,Washington,King County Sexual Assault Resource Center,http://www.kcsarc.org/,(888) 998-6423,NA
Crisis Center,Republic,Washington,Ferry County Connections,http://www.ferry-county.com/Connections.html,(877) 876-9186,NA
Crisis Center,Seattle,Washington,Harborview Center for Sexual Assualt and Traumatic Stress,http://www.hcsats.org/,(206) 744-1600,NA
Crisis Center,Seattle,Washington,University of Washington Police Department - Victim Advocate,http://police.uw.edu/,(206) 685-7233,NA
Crisis Center,Shelton,Washington,"Prevention, Advocacy and Specialized Services",http://www.wix.com/pass2012/pass,(888) 222-3664,NA
Crisis Center,"Spokane,",Washington,Sexual Assault & Family Trauma and Response Center (SAFeT),http://www.lcsnw.org/,(509) 624-7273,NA
Crisis Center,Tacoma,Washington,Rebuilding Hope,http://sexualassaultcenter.com/,(800) 756-7273,tasha@hopesacpc.org
Crisis Center,Vancouver,Washington,YWCA Clark Co. Sexual Assault Program,http://www.ywcaclarkcounty.org/,(800) 695-0167,NA
Crisis Center,Walla Walla,Washington,YWCA Domestic Violence/Sexual Assault Center,http://www.ywcaww.org/,(509) 529-9922,NA
Crisis Center,Wentachee,Washington,Sage,http://www.findsafety.org/,(888) 614-5117,jessiej@nwi.net
Crisis Center,Yakima,Washington,Yakima Victim Services,http://www.cwcmh.org/, (888) 605-6999,NA
Crisis Center,Beckley,West Virginia,Women’s Resource Center,http://wrcwv.org/,(888) 825-7836,help@wrcwv.org
Crisis Center,Charleston,West Virginia,REACH Rape Crisis Program at Family Counseling Connection,http://www.tccwv.org/,(800) 656-4673,NA
Crisis Center,Elkins,West Virginia,Women’s Aid in Crisis,http://waicwv.org/,(800) 339-1185,NA
Crisis Center,Fairmont,West Virginia,"HOPE, Inc.",NA,(800) 799-7233,NA
Crisis Center,Huntington,West Virginia,CONTACT Rape Crisis Center,http://www.contacthuntington.com/,(866) 399-7273,NA
Crisis Center,Keyser,West Virginia,Family Crisis Center,NA,(800) 698-1240,NA
Crisis Center,Lewisburg,West Virginia,Family Refuge Center,http://familyrefugecenter.org/,(866) 645-6334,NA
Crisis Center,Martinsburg,West Virginia,Shenandoah Women’s Center,http://swcinc.org/,(304) 263-8292,NA
Crisis Center,Morgantown,West Virginia,Rape and Domestic Violence Information Center,http://www.rdvic.org/,(304) 292-5100,rdvic99@earthlink.net
Crisis Center,"Wheeling,",West Virginia,Upper Ohio Valley Sexual Assault Help Center Inc.,NA,(304) 234-8519,NA
Crisis Center,Alma,Wisconsin,"Bolton Refuge House, Inc.",http://www.boltonrefugehouse.org/,(800) 252-4357,boltonrefugehouse@yahoo.com
Crisis Center,Antigo,Wisconsin,"AVAIL, Inc.",http://www.availinc.org/,(715) 623-5767,avail@availinc.org
Crisis Center,Appleton,Wisconsin,"Sexual Assault Crisis Center-Fox Cities, Inc.",http://www.sacc-foxcities.org/,(800) 722-7797,NA
Crisis Center,Ashland,Wisconsin,New Day Shelter,http://www.ndshelter.org/,(800) 924-4132,NA
Crisis Center,Baraboo,Wisconsin,Hope House,http://hopehousescw.org/,(800) 584-6790,hhshelter@hopehousescw.org
Crisis Center,"Beaver Dam,",Wisconsin,"People Against a Violent Environment, Inc.",http://www.peopleagainstaviolentenvironment.com/,(800) 775-3785,NA
Crisis Center,Beloit,Wisconsin,Sexual Assault Recovery Program of Rock County,http://sarpwi.com/,(866) 666-4576,NA
Crisis Center,Chippewa Falls,Wisconsin,Family Support Center,http://www.familysupportcentercf.com/,(800) 400-7020,NA
Crisis Center,Eau Claire,Wisconsin,"Bolton Refuge House, Inc.",http://www.boltonrefugehouse.org/,(800) 252-4357,boltonrefugehouse@yahoo.com
Crisis Center,Elkhorn,Wisconsin,The Association for the Prevention of Family Violence,http://www.apfvwalworth.com,(262) 723-4653,NA
Crisis Center,Fond Du Lac,Wisconsin,"ASTOP, Inc.",http://www.astop.org/,(800) 418-0270,NA
Crisis Center,Green Bay,Wisconsin,Family Services Sexual Assault Center,http://www.familyservicesnew.org/,(920) 436-8899,NA
Crisis Center,Green Bay,Wisconsin,Sexual Assault Center Of Family Services of Northeast Wisconsin,http://www.familyservicesnew.org/,(920) 436-8899,NA
Crisis Center,Janesville,Wisconsin,YWCA Rock County,http://www.ywcarockcounty.org/,(800) 750-7990,NA
Crisis Center,Kenosha,Wisconsin,Women and Children's Horizons,http://www.wchkenosha.org/,(800) 853-3503,admin@wchkenosha.org
Crisis Center,La Crosse,Wisconsin,Sexual Abuse Counseling & Support Program—Gunderson Lutheran Medical Center,http://www.gundersenhealth.org/,(608) 775-5950,NA
Crisis Center,Ladysmith,Wisconsin,Time-Out Family Shelter,http://www.timeoutabuseshelter.com/,(800) 924-0556,NA
Crisis Center,Madison,Wisconsin,Rape Crisis Center,http://www.danecountyrcc.org/,(608) 251-7273,info@danecountyrcc.org
Crisis Center,Marshfield,Wisconsin,Personal Development Center,http://www.pdcmarshfield.com/,(877) 743-6262,NA
Crisis Center,Medford,Wisconsin,"Stepping Stones, Inc.",http://steppingstones.org/,(866) 343-5140,info@steppingstone.org
Crisis Center,Menomonie,Wisconsin,The Bridge to Hope,http://www.thebridgetohope.org/,(800) 924-9918,NA
Crisis Center,Merrill,Wisconsin,"Haven,Inc.",http://www.haveninc.org/,(715) 536-1300,NA
Crisis Center,Milltown,Wisconsin,Community Referral Agency,http://crashelter.org/,(800) 261-7233,NA
Crisis Center,Milwaukee,Wisconsin,Milwaukee Women’s Center,http://www.mwcinc.org/,(414) 671-6140,NA
Crisis Center,Milwaukee,Wisconsin,The Healing Center,http://www.thehealingcenter.org,(414)671-4325,
Crisis Center,Milwaukee,Wisconsin,Sexual Assault Treatment Center,http://www.aurorahealthcare.org/services/sexual-assault/satc.asp,(414) 219-5555,NA
Crisis Center,Neenah,Wisconsin,Reach Counseling Services,http://www.reachcounseling.com/,(920) 722-8150,NA
Crisis Center,Platteville,Wisconsin,"Family Advocates, Inc.",http://www.familyadv.org/,(800) 924-2624,NA
Crisis Center,Racine,Wisconsin,Sexual Assault Services of Lutheran Social Services,http://www.sasoflss.org/,(262) 637-7233,kadler28@lsswis.org 
Crisis Center,Rhinelander,Wisconsin,Tri-County Council on DV& SA,http://www.tri-countycouncil.org/,(800) 236-1222,NA
Crisis Center,Richland Center,Wisconsin,"Passages, Inc.",NA,(800) 236-4325,NA
Crisis Center,River Falls,Wisconsin,Turningpoint,http://www.turningpoint-wi.org/,(800) 345-5104,info@turningpoint-wi.org
Crisis Center,Saukville,Wisconsin,Advocates of Ozaukee,http://www.advocates-oz.org/,(877) 375-4034,NA
Crisis Center,Shawano,Wisconsin,Safe Haven,http://www.shawanoshelter.org/,(888) 303-3421,NA
Crisis Center,Superior,Wisconsin,Center Against Sexual and Domestic Abuse,http://www.casda.org/,(800) 649-2921,NA
Crisis Center,Waukesha,Wisconsin,The Women’s Center,http://www.twcwaukesha.org/,(888) 542-3828,NA
Crisis Center,Wausau,Wisconsin,The Women’s Community Inc.- Sexual Assault Victim Service,http://www.womenscommunity.org/,(715) 842-7323,NA
Crisis Center,West Bend,Wisconsin,"Friends of Abused Families, Inc.",http://www.fafinc.org/,(262) 334-7298,info@fafinc.org
Crisis Center,Buffalo,Wyoming,Johnson County Family Crisis Center,http://www.jcfcc.jcfcc.org,(307) 684-2233,NA
Crisis Center,Casper,Wyoming,Self Help Center,http://selfhelpcenterinc.webs.com/,(307) 235-2814,NA
Crisis Center,Cheyenne,Wyoming,Safe House Services,http://www.wyomingsafehouse.org/,(307) 637-7233,NA
Crisis Center,Cody ,Wyoming,Crisis Intervention Services (CIS),http://www.cispark.org/,(877) 864-9688,NA
Crisis Center,Douglas,Wyoming,Converse County Coalition Against Violence,http://www.conversecountrycoalition.org/,(800) 252-3575,NA
Crisis Center,Evanston,Wyoming,Sexual Assault & Family Violence Task Force,NA,(800) 997-9026,NA
Crisis Center,Gillette,Wyoming,Gillette Abuse Refuge Foundation (GARF),http://www.farf.vcn.com/,(307) 686-8070,NA
Crisis Center,Jackson,Wyoming,Community Safety Network,http://www.communitysafetynetwork.org/, (307) 733-7233,director@csnjh.org
Crisis Center,Laramie,Wyoming,Safe Project,http://www.safeproject.org/,(307) 745-3556,NA
Crisis Center,Lusk,Wyoming,Helpmate Crisis Center & Crime Victims Assistance Program,NA,(307) 334-2608,NA
Crisis Center,Newcastle,Wyoming,"FOCUS, Inc.",NA,(307) 746-2748,NA
Crisis Center,Pinedale,Wyoming,Sublette County SAFV Task Force,NA,(888) 301-4435,NA
Crisis Center,Rock Springs,Wyoming,YWCA Support & Safe House (SASH),NA,(307) 352-1030,NA
Crisis Center,Sheridan,Wyoming,Advocacy & Resource Center,http://www.arcsheridan.org/,(307) 672-3222,NA
Crisis Center,St. Stephens,Wyoming,Sacred Shield,NA,(866) 575-3965,NA
Crisis Center,Thermopolis,Wyoming,Hope Agency,NA,(307) 864-HOPE,NA
Crisis Center,Torrington,Wyoming,Goshen County Task Force on Family Violence & Sexual Assault,NA,(307) 532-2118,NA
Crisis Center,Wheatland,Wyoming,"Project SAFE, Inc.",http://www.projectsafewyo.com/,(307) 322-4794,NA
Crisis Center,Worland,Wyoming,Crisis Prevention and Response Center,http://www.worlandcpr.org/,(307) 347-4991,NA
